"location_id","street_name","zip_code","state"
"1","806-9252 Vivamus Street","323543","Daman and Diu"
"2","Ap #584-2176 Erat. Avenue","896614","Goa"
"3","548-5391 Purus St.","319433","Himachal Pradesh"
"4","416-2570 Nullam Street","768754","Andhra Pradesh"
"5","4461 Enim. Av.","278513","Lakshadweep"
"6","155-4253 Tempor Rd.","382549","Andaman and Nicobar Islands"
"7","Ap #642-767 Auctor, Av.","766224","Karnataka"
"8","Ap #848-1455 Sed Street","655525","Gujarat"
"9","737-3898 Libero Ave","326892","Maharastra"
"10","706 Lorem Avenue","204030","Himachal Pradesh"
"11","Ap #994-9316 Lacinia Rd.","715250","Goa"
"12","P.O. Box 105, 9618 Hendrerit. Road","522805","Maharastra"
"13","Ap #747-4490 Vitae Rd.","122242","Odisha"
"14","Ap #649-7447 Ornare St.","215365","Himachal Pradesh"
"15","Ap #269-9862 Tempor Av.","338144","Uttarakhand"
"16","P.O. Box 571, 5903 Dolor, Av.","287822","Kerala"
"17","227-5462 Ut Rd.","366334","Uttar Pradesh"
"18","554-3984 Risus Street","447453","Daman and Diu"
"19","154-5380 Eget, Avenue","322468","Andhra Pradesh"
"20","905-3947 Nonummy Rd.","618381","Andaman and Nicobar Islands"
"21","8389 Mi. Rd.","661834","Haryana"
"22","Ap #713-8579 Non, Road","522443","West Bengal"
"23","Ap #484-9554 Mauris St.","975662","Odisha"
"24","Ap #935-8276 Diam. Road","571897","Assam"
"25","888-8841 Fusce Ave","386803","Lakshadweep"
"26","9171 Magnis Rd.","235630","Odisha"
"27","P.O. Box 447, 5741 Commodo St.","525418","Tripura"
"28","Ap #565-3129 Gravida Avenue","672473","Maharastra"
"29","4767 In Av.","963601","Bihar"
"30","726-1271 Facilisis Rd.","519741","Maharastra"
"31","P.O. Box 216, 1943 Nunc Street","363535","Nagaland"
"32","454-8836 Fringilla Street","853882","West Bengal"
"33","Ap #425-7167 Vel Avenue","548417","Chandigarh"
"34","852-8517 Penatibus Avenue","599348","Odisha"
"35","181-1154 Dignissim Road","748111","Kerala"
"36","P.O. Box 136, 206 Mattis St.","163706","Pondicherry"
"37","Ap #292-8270 Lectus Road","322343","Delhi"
"38","416-6843 Nascetur Road","700643","Odisha"
"39","Ap #481-367 Sit Avenue","428235","Haryana"
"40","485-6688 Bibendum Av.","220662","Andhra Pradesh"
"41","1082 Non Ave","310531","Dadra and Nagar Haveli"
"42","P.O. Box 138, 8087 Metus. Ave","519626","Uttarakhand"
"43","1812 Nec Street","887939","Himachal Pradesh"
"44","3860 Proin St.","438217","Mizoram"
"45","7638 Est St.","435572","Arunachal Pradesh"
"46","P.O. Box 588, 9637 At Street","675252","Delhi"
"47","Ap #683-8914 Felis. Rd.","643487","Kerala"
"48","P.O. Box 839, 8408 Egestas, St.","541125","Arunachal Pradesh"
"49","5021 Auctor, St.","994642","Gujarat"
"50","953-803 Senectus Rd.","834633","Andaman and Nicobar Islands"
"51","9971 Leo. St.","445456","Goa"
"52","968-3766 Tortor. Rd.","582548","Uttar Pradesh"
"53","1895 A, Road","681535","Nagaland"
"54","Ap #177-9446 A Rd.","822411","Dadra and Nagar Haveli"
"55","8584 Laoreet Rd.","371758","West Bengal"
"56","6736 Nullam Ave","619535","Uttar Pradesh"
"57","Ap #366-1539 Ullamcorper Rd.","458964","Haryana"
"58","195-7485 Parturient Road","736363","Bihar"
"59","8368 Non, St.","986283","Meghalaya"
"60","Ap #984-4029 Urna Rd.","738228","Mizoram"
"61","Ap #513-9670 Dui Avenue","214904","Daman and Diu"
"62","992-576 Arcu Avenue","508109","Uttar Pradesh"
"63","844-5347 Quis Rd.","750652","Bihar"
"64","Ap #523-3697 Suspendisse St.","850426","Daman and Diu"
"65","370-1888 Scelerisque St.","823129","Karnataka"
"66","258-2799 Donec St.","248244","Jammu and Kashmir"
"67","2017 Ultrices. Av.","191942","Chhattisgarh"
"68","Ap #807-8255 Fringilla Street","547808","Himachal Pradesh"
"69","P.O. Box 664, 8446 Cras Street","346755","Uttarakhand"
"70","Ap #407-794 Urna, Rd.","455460","Manipur"
"71","Ap #918-5511 Elit, St.","398233","Andhra Pradesh"
"72","P.O. Box 670, 1824 Aenean Street","854871","Nagaland"
"73","P.O. Box 817, 1259 Cum Rd.","285132","Lakshadweep"
"74","3056 Mi Ave","564606","Jammu and Kashmir"
"75","438-8772 Aenean Street","545803","Uttarakhand"
"76","Ap #323-7849 Suspendisse Street","512022","Tamil Nadu"
"77","780-3759 Erat, Av.","813721","Maharastra"
"78","1467 Varius Street","333188","Rajasthan"
"79","P.O. Box 640, 121 Augue Street","364572","Pondicherry"
"80","Ap #137-1840 Nibh Road","403150","Nagaland"
"81","Ap #759-1450 Tempor St.","302544","Uttar Pradesh"
"82","Ap #985-6485 Auctor Road","677688","Pondicherry"
"83","P.O. Box 544, 4638 Nunc St.","535888","Assam"
"84","620-3755 Arcu Road","674014","Rajasthan"
"85","852 Tellus. St.","577167","Maharastra"
"86","Ap #769-9448 Cras Rd.","966275","Bihar"
"87","Ap #145-346 Mauris Rd.","645773","Jammu and Kashmir"
"88","2134 Magna. Street","425138","Madhya Pradesh"
"89","5989 Mauris Road","390985","Kerala"
"90","P.O. Box 288, 1882 Neque Av.","966458","Jammu and Kashmir"
"91","386-6338 Augue Road","943337","Pondicherry"
"92","Ap #897-6776 Commodo Ave","882811","Daman and Diu"
"93","P.O. Box 956, 7902 Nullam Avenue","544786","Maharastra"
"94","Ap #142-3294 Integer Avenue","298851","Kerala"
"95","P.O. Box 505, 862 Sociis Rd.","746441","Jammu and Kashmir"
"96","P.O. Box 602, 1129 Eu Av.","866847","Mizoram"
"97","602-8641 Risus. Rd.","222528","Uttarakhand"
"98","239-8898 Elementum Avenue","584812","Andaman and Nicobar Islands"
"99","Ap #329-622 Vitae, St.","398207","Pondicherry"
"100","2922 Sed Av.","748257","Uttar Pradesh"
"101","1952 Ut Rd.","757287","Arunachal Pradesh"
"102","Ap #137-3699 Congue St.","298158","Andhra Pradesh"
"103","Ap #778-925 Ipsum Av.","639228","Chhattisgarh"
"104","243-9209 Sit Road","178211","Tamil Nadu"
"105","615-4055 Cras Rd.","195344","Odisha"
"106","4656 Nunc Street","566879","Himachal Pradesh"
"107","831-6039 Semper Road","980655","Uttar Pradesh"
"108","Ap #352-6795 Est Av.","519612","Rajasthan"
"109","P.O. Box 523, 8746 Nascetur Street","544332","Assam"
"110","P.O. Box 549, 1858 Nonummy Road","735627","West Bengal"
"111","Ap #372-4907 Odio, Rd.","692111","Meghalaya"
"112","288-7746 Vel, Street","282706","Rajasthan"
"113","Ap #152-4719 Donec Avenue","117675","Goa"
"114","9970 Nunc Rd.","629567","Himachal Pradesh"
"115","P.O. Box 519, 7386 Nunc Rd.","430678","Andhra Pradesh"
"116","111-1175 Scelerisque, Rd.","748527","Daman and Diu"
"117","267-1439 Tellus St.","365460","Haryana"
"118","195-1486 Et, Ave","424755","Bihar"
"119","3792 Tristique Ave","112016","Andhra Pradesh"
"120","Ap #426-373 Elit, Road","566832","Arunachal Pradesh"
"121","P.O. Box 603, 9803 Cursus. Street","347378","Himachal Pradesh"
"122","Ap #202-5316 Egestas Rd.","672307","Chhattisgarh"
"123","438-2191 Et, Ave","208777","Meghalaya"
"124","508 Integer St.","213624","Uttarakhand"
"125","318-1923 Auctor Av.","778935","Mizoram"
"126","Ap #982-6924 Ut Rd.","117154","Tamil Nadu"
"127","Ap #889-7029 Consequat Road","230181","Karnataka"
"128","Ap #667-8927 Vulputate Road","360625","Meghalaya"
"129","928-3328 Augue Road","659325","Pondicherry"
"130","P.O. Box 411, 9226 Fusce Street","837010","Daman and Diu"
"131","155-1430 Vulputate, Avenue","882171","Uttar Pradesh"
"132","Ap #410-7976 Tincidunt Av.","237405","Tripura"
"133","P.O. Box 763, 2829 Urna Ave","738058","Rajasthan"
"134","Ap #201-9186 Enim Road","282562","Jharkhand"
"135","Ap #481-8205 Maecenas Road","141496","Assam"
"136","591-979 Imperdiet Road","901531","Arunachal Pradesh"
"137","Ap #630-9440 Convallis, Rd.","921368","Goa"
"138","927-4204 Volutpat. Av.","873732","Uttarakhand"
"139","Ap #511-7690 Magna. Ave","675218","Maharastra"
"140","P.O. Box 459, 1451 Ipsum Rd.","488641","Dadra and Nagar Haveli"
"141","618 Vestibulum. Avenue","463285","Rajasthan"
"142","Ap #527-695 Ligula St.","216674","Tamil Nadu"
"143","301-7964 Odio Av.","234135","Dadra and Nagar Haveli"
"144","674-6622 Sed Rd.","972491","Meghalaya"
"145","9416 Sed Rd.","168305","Tripura"
"146","P.O. Box 231, 1374 Eu, Rd.","520477","Manipur"
"147","P.O. Box 986, 1991 Tincidunt, Avenue","146422","Jammu and Kashmir"
"148","542-3904 Velit Av.","297577","Himachal Pradesh"
"149","Ap #646-9011 Vivamus Ave","856343","Tamil Nadu"
"150","P.O. Box 611, 727 Erat. Av.","311561","Haryana"
"151","970-6269 In, Av.","547318","Arunachal Pradesh"
"152","8435 Lobortis Av.","811631","Madhya Pradesh"
"153","331-1579 Magna, Ave","981867","Nagaland"
"154","Ap #322-330 Quisque Ave","791189","Nagaland"
"155","969-6787 Semper. Street","984208","Tripura"
"156","610-4734 Sed Road","237742","Meghalaya"
"157","P.O. Box 385, 2511 Nisl. Av.","657727","Lakshadweep"
"158","P.O. Box 291, 373 Ultrices Ave","725926","Madhya Pradesh"
"159","1057 Non, Rd.","649553","Arunachal Pradesh"
"160","4710 Molestie Rd.","632662","Gujarat"
"161","691-8530 Pede. Road","712726","Assam"
"162","P.O. Box 391, 1597 Cras Avenue","292398","Gujarat"
"163","Ap #843-4680 Dignissim Rd.","412048","Chhattisgarh"
"164","981-874 Vehicula Road","411767","Andhra Pradesh"
"165","Ap #350-8878 Nascetur Avenue","258848","Goa"
"166","Ap #932-3774 Nibh. Road","255190","Delhi"
"167","Ap #159-8706 Quis Road","288331","Jammu and Kashmir"
"168","Ap #127-9574 Semper Ave","389354","Daman and Diu"
"169","993-6438 Sit Av.","652466","West Bengal"
"170","Ap #290-3251 Diam Street","534686","Delhi"
"171","825-4908 Mus. Avenue","666538","Karnataka"
"172","512-6095 Penatibus Ave","754919","Manipur"
"173","480-3624 Velit. Road","727352","Mizoram"
"174","Ap #766-1880 Porttitor St.","764771","Bihar"
"175","P.O. Box 709, 967 Auctor Av.","463248","Pondicherry"
"176","121-5223 Venenatis Avenue","270244","Rajasthan"
"177","2947 Fermentum Road","452566","Uttar Pradesh"
"178","733-6664 Nisi. Road","740185","Mizoram"
"179","247-7964 Molestie Road","680305","Chhattisgarh"
"180","635-5783 Luctus, St.","313524","Nagaland"
"181","Ap #148-5581 Nunc St.","277285","Chhattisgarh"
"182","540-1967 Eget, Avenue","722829","Haryana"
"183","1766 Ligula. Street","660772","Assam"
"184","P.O. Box 210, 2439 Risus. Av.","411321","Kerala"
"185","893-4576 Auctor Rd.","803062","Chandigarh"
"186","Ap #817-2450 Id Rd.","178637","Uttar Pradesh"
"187","495-7418 Sem. Ave","504465","Arunachal Pradesh"
"188","P.O. Box 820, 3766 Nunc Ave","613634","Arunachal Pradesh"
"189","Ap #783-272 Vulputate Road","503580","Uttarakhand"
"190","766-8579 Sapien. Rd.","267879","Bihar"
"191","Ap #737-3469 In Rd.","333879","Chandigarh"
"192","644-1011 A St.","767145","Himachal Pradesh"
"193","Ap #893-8281 Iaculis Ave","540621","Andaman and Nicobar Islands"
"194","P.O. Box 551, 8924 Porttitor Av.","332231","Mizoram"
"195","P.O. Box 813, 7287 Ultrices Rd.","342747","Pondicherry"
"196","Ap #165-8842 Nisl. Rd.","625438","West Bengal"
"197","626-1121 Nullam Avenue","371614","Lakshadweep"
"198","1219 Rutrum Street","334872","Andhra Pradesh"
"199","Ap #630-8619 Lobortis Road","480653","Jharkhand"
"200","149-1300 Sit Road","216704","Madhya Pradesh"
"201","945-8323 Fermentum Road","761327","Lakshadweep"
"202","Ap #538-4393 Pharetra. St.","679286","Himachal Pradesh"
"203","230-4643 Torquent Ave","692528","Bihar"
"204","217-4474 Pede Street","415437","Meghalaya"
"205","Ap #717-5663 Rutrum Avenue","393421","Pondicherry"
"206","P.O. Box 878, 1297 Nunc. St.","405218","Andaman and Nicobar Islands"
"207","Ap #263-8267 Tortor St.","138185","Kerala"
"208","P.O. Box 610, 1212 Volutpat. Rd.","427218","Andhra Pradesh"
"209","743-6004 Consectetuer Street","951887","West Bengal"
"210","P.O. Box 175, 1125 Accumsan St.","577624","Manipur"
"211","Ap #205-6601 Dui, Av.","252141","Tamil Nadu"
"212","924-5787 Fringilla Av.","296126","Chhattisgarh"
"213","Ap #986-2301 Ultrices St.","128261","Chandigarh"
"214","Ap #179-8833 Dignissim Avenue","631570","Tripura"
"215","291-2609 Vel, Road","569587","Jharkhand"
"216","7857 A Avenue","899561","Rajasthan"
"217","Ap #402-4906 Rhoncus Road","845324","Uttar Pradesh"
"218","104-3982 Morbi St.","311799","Haryana"
"219","677-5732 Aenean Street","367262","Dadra and Nagar Haveli"
"220","919-1680 Leo, St.","925637","Arunachal Pradesh"
"221","5451 Vestibulum Av.","673191","Tamil Nadu"
"222","P.O. Box 822, 4484 Nisi. Av.","833147","Arunachal Pradesh"
"223","Ap #205-3634 Justo St.","782687","Kerala"
"224","950-1117 Ornare St.","383067","Assam"
"225","Ap #462-4484 Arcu Avenue","767940","Karnataka"
"226","Ap #142-5297 Integer Rd.","162486","West Bengal"
"227","Ap #555-8105 Erat Ave","825556","Nagaland"
"228","576-8619 Lorem Rd.","984131","Rajasthan"
"229","681-7132 Faucibus Road","273386","Chhattisgarh"
"230","Ap #926-643 Eu, St.","504755","Maharastra"
"231","Ap #977-866 Aliquam Road","283384","Nagaland"
"232","180-5662 Magna St.","898462","Manipur"
"233","135-2573 Eget Rd.","734303","Tripura"
"234","Ap #513-7002 Tincidunt Road","545272","Haryana"
"235","3410 At Rd.","883776","Punjab"
"236","658 Scelerisque Street","571749","Odisha"
"237","Ap #778-8505 Sed Ave","433269","Goa"
"238","P.O. Box 160, 5170 Et Rd.","975705","Daman and Diu"
"239","P.O. Box 553, 303 Mi. Ave","813714","Madhya Pradesh"
"240","Ap #121-161 Interdum. Ave","853722","West Bengal"
"241","P.O. Box 300, 5608 Pharetra St.","322147","Tamil Nadu"
"242","Ap #129-7916 Libero Av.","620078","Sikkim"
"243","6225 Vel Avenue","426564","Himachal Pradesh"
"244","Ap #954-9227 Sed Street","613776","Rajasthan"
"245","825-7733 Nibh. St.","349324","Uttar Pradesh"
"246","730-9817 Neque Avenue","373176","Assam"
"247","P.O. Box 254, 1470 Non Rd.","112138","Tamil Nadu"
"248","220-165 Feugiat Rd.","315483","Uttar Pradesh"
"249","Ap #897-345 Vulputate Av.","568130","Punjab"
"250","116-4068 Egestas. Street","767337","Odisha"
"251","P.O. Box 482, 2654 Enim. Rd.","341162","Uttarakhand"
"252","149-6425 Auctor Avenue","732464","West Bengal"
"253","P.O. Box 954, 144 Fermentum Street","563136","Nagaland"
"254","7029 Urna. Rd.","694421","Kerala"
"255","P.O. Box 621, 7312 Mus. St.","464659","Kerala"
"256","P.O. Box 247, 3874 Elit. Ave","173585","Punjab"
"257","285-4690 Ut St.","905876","Haryana"
"258","358-8921 Sapien. St.","913030","Lakshadweep"
"259","P.O. Box 314, 8739 Sem Rd.","106781","Nagaland"
"260","Ap #980-3131 Dolor Road","775634","Arunachal Pradesh"
"261","P.O. Box 556, 7055 Quis, Rd.","423722","Delhi"
"262","366-2127 Etiam St.","246048","Mizoram"
"263","Ap #901-5106 Sodales St.","249761","Goa"
"264","596-5466 Ac Street","680679","Dadra and Nagar Haveli"
"265","Ap #985-2139 At Av.","553121","Assam"
"266","Ap #872-1252 Bibendum Av.","888747","Assam"
"267","P.O. Box 803, 2982 Id Avenue","312268","Maharastra"
"268","Ap #806-5540 Neque Street","284314","Assam"
"269","Ap #418-6027 Fermentum Av.","482700","Andhra Pradesh"
"270","Ap #841-9952 Tellus. Road","143471","Haryana"
"271","Ap #577-9037 Elit, St.","532143","Himachal Pradesh"
"272","Ap #293-8054 Sapien. Rd.","214247","Goa"
"273","Ap #393-6434 A Rd.","171656","Daman and Diu"
"274","326-5156 Augue, Road","751482","West Bengal"
"275","710-1187 Curabitur St.","882637","Gujarat"
"276","988-5862 Lobortis Avenue","686188","Arunachal Pradesh"
"277","P.O. Box 578, 7290 Mauris. Rd.","366402","Assam"
"278","P.O. Box 676, 5026 Non Street","213641","Maharastra"
"279","4951 Nec Rd.","634572","Jharkhand"
"280","Ap #823-438 Tortor Av.","253114","Tripura"
"281","476-6897 In, Road","433233","Tamil Nadu"
"282","861-8813 Lobortis. Avenue","245637","Pondicherry"
"283","Ap #671-461 Erat Avenue","747235","Madhya Pradesh"
"284","588-9141 Habitant St.","858874","Bihar"
"285","437-2824 Libero. Street","555686","Haryana"
"286","Ap #754-108 Magna Rd.","418155","Haryana"
"287","Ap #228-1570 Amet, St.","458715","Chhattisgarh"
"288","Ap #366-2530 Sagittis Rd.","426355","Goa"
"289","Ap #874-3507 Orci Rd.","735308","Jharkhand"
"290","P.O. Box 677, 1462 Ornare, Av.","385833","Nagaland"
"291","P.O. Box 386, 2195 Sapien Ave","494047","Sikkim"
"292","869-9230 Quisque Rd.","532146","Sikkim"
"293","P.O. Box 465, 2456 Tristique Road","227508","Mizoram"
"294","147-8378 Egestas Street","524318","Sikkim"
"295","Ap #602-1959 Arcu St.","223503","Uttarakhand"
"296","Ap #993-880 Pharetra, St.","994876","Mizoram"
"297","1803 Sit St.","556367","Punjab"
"298","Ap #462-6976 Cursus Rd.","452173","Meghalaya"
"299","Ap #763-3502 Ipsum Av.","411523","Delhi"
"300","358-9764 Luctus Ave","137458","Himachal Pradesh"
"301","P.O. Box 232, 5864 Consectetuer Street","618661","Jammu and Kashmir"
"302","187-7880 Natoque Rd.","444567","Assam"
"303","Ap #202-9597 Convallis, Rd.","540945","Dadra and Nagar Haveli"
"304","P.O. Box 700, 5680 Suspendisse St.","417812","Rajasthan"
"305","P.O. Box 650, 6572 Nec, Av.","435525","Odisha"
"306","P.O. Box 272, 881 Lacus St.","447155","Chhattisgarh"
"307","Ap #934-2827 Donec Road","515326","Sikkim"
"308","P.O. Box 650, 8183 Faucibus Rd.","304775","Tripura"
"309","946-9728 Tempus Avenue","538357","Lakshadweep"
"310","Ap #977-8356 Aliquam Road","980792","Pondicherry"
"311","Ap #680-8184 Risus. Avenue","733213","Pondicherry"
"312","P.O. Box 712, 9773 Donec Avenue","784022","Andhra Pradesh"
"313","Ap #411-4541 Consectetuer, St.","290580","Uttarakhand"
"314","P.O. Box 790, 3865 Dolor St.","421517","Tripura"
"315","Ap #721-1435 Posuere Av.","733318","Odisha"
"316","366-1901 Ipsum. Av.","656952","Karnataka"
"317","Ap #607-9171 Nulla St.","818185","Andhra Pradesh"
"318","Ap #646-4063 Pede Ave","237066","Kerala"
"319","5591 Eget Road","284513","Pondicherry"
"320","P.O. Box 424, 901 Pharetra Rd.","248482","Dadra and Nagar Haveli"
"321","Ap #173-8733 Mi Ave","611544","Kerala"
"322","Ap #784-6657 Quam Rd.","723562","Mizoram"
"323","Ap #310-4022 Dolor. Rd.","549644","Uttarakhand"
"324","911-2685 Arcu. Street","836556","Uttarakhand"
"325","Ap #751-1191 Nulla. Rd.","847118","Dadra and Nagar Haveli"
"326","Ap #534-9510 Vivamus Rd.","690149","West Bengal"
"327","Ap #236-3425 Non Avenue","361283","Himachal Pradesh"
"328","Ap #107-5154 Vestibulum Rd.","871457","Sikkim"
"329","Ap #628-6154 Auctor Road","609046","Lakshadweep"
"330","Ap #166-2660 Praesent Road","414484","Odisha"
"331","798-9659 Quisque Street","976355","Nagaland"
"332","P.O. Box 383, 4479 Consequat Rd.","659728","Mizoram"
"333","Ap #370-7015 Sed St.","807564","Daman and Diu"
"334","498-211 Nibh Rd.","428155","Maharastra"
"335","816-7274 Nec Rd.","688850","Manipur"
"336","798-4689 Risus Rd.","270802","Andhra Pradesh"
"337","517-4783 Augue Street","361118","Dadra and Nagar Haveli"
"338","2375 A, St.","465526","West Bengal"
"339","258-6451 Pretium Street","293011","Delhi"
"340","P.O. Box 549, 4296 Dignissim Avenue","898428","Daman and Diu"
"341","2632 Sit Rd.","251761","Assam"
"342","757-1887 Fermentum Road","469728","Rajasthan"
"343","958-6647 Odio. Rd.","386827","Haryana"
"344","P.O. Box 736, 377 Arcu. Rd.","831408","Tripura"
"345","767-2080 Quam. St.","835052","Dadra and Nagar Haveli"
"346","8969 Nibh Rd.","811688","Assam"
"347","Ap #432-4457 Ultricies Street","218786","Uttarakhand"
"348","2697 Orci Street","412789","Assam"
"349","7367 Enim St.","726362","West Bengal"
"350","P.O. Box 730, 1638 Molestie Ave","678552","Punjab"
"351","Ap #692-7228 Vel, Ave","214022","Madhya Pradesh"
"352","9464 Posuere Ave","848415","Maharastra"
"353","P.O. Box 294, 2479 In Street","223335","Meghalaya"
"354","P.O. Box 180, 9636 Dis Road","755027","Odisha"
"355","757 Accumsan Avenue","566136","Arunachal Pradesh"
"356","3455 Ante Avenue","621409","Tripura"
"357","P.O. Box 421, 3160 Quis, St.","824549","Haryana"
"358","467-3233 Tempus Rd.","174136","Pondicherry"
"359","Ap #109-8202 Vitae, Road","462071","Mizoram"
"360","643-8020 Magna Road","311821","Tripura"
"361","P.O. Box 838, 2328 Venenatis St.","686879","Nagaland"
"362","Ap #464-7210 Odio Street","777414","Madhya Pradesh"
"363","Ap #454-467 Tristique Street","371696","Karnataka"
"364","Ap #332-2386 Rutrum Ave","675120","Jammu and Kashmir"
"365","773-1718 At, Rd.","841796","Pondicherry"
"366","528-861 Ut Rd.","804480","Uttarakhand"
"367","822-871 Facilisis Road","967656","Uttar Pradesh"
"368","Ap #221-7283 Vulputate Street","561350","Andaman and Nicobar Islands"
"369","Ap #524-1608 Erat Street","777668","Jammu and Kashmir"
"370","361-2021 Integer Rd.","133537","Andhra Pradesh"
"371","P.O. Box 136, 4209 Ipsum. Rd.","622285","Bihar"
"372","P.O. Box 452, 988 Id St.","548198","Karnataka"
"373","Ap #524-5302 Nostra, Avenue","807197","Daman and Diu"
"374","539-8207 Nascetur Avenue","883068","Mizoram"
"375","Ap #855-1648 Etiam Street","326912","Arunachal Pradesh"
"376","Ap #148-8955 Posuere, Avenue","268425","Uttar Pradesh"
"377","498-3103 In Rd.","744687","Chhattisgarh"
"378","582-5129 Libero. St.","515574","Delhi"
"379","329-2834 Pellentesque Ave","421264","Punjab"
"380","946-4042 Dictum. Road","765951","Goa"
"381","Ap #164-1009 Sapien Av.","254298","Tripura"
"382","Ap #111-2338 Vitae Rd.","174357","Arunachal Pradesh"
"383","4932 Imperdiet Avenue","648928","Tamil Nadu"
"384","278-5527 Velit Av.","268125","Tripura"
"385","741-277 Placerat, Street","717861","Maharastra"
"386","377 Diam Rd.","737879","Manipur"
"387","219-3507 Non, Street","979670","Jammu and Kashmir"
"388","P.O. Box 305, 339 Eget St.","218341","Nagaland"
"389","Ap #191-479 Nulla St.","452494","Jammu and Kashmir"
"390","Ap #813-8896 Cubilia Avenue","244583","Tripura"
"391","806-8449 Massa Road","987482","Chandigarh"
"392","470-660 Cursus St.","369715","Jharkhand"
"393","Ap #128-4154 Lorem Ave","666266","Lakshadweep"
"394","Ap #627-9290 Consectetuer Rd.","482806","Manipur"
"395","Ap #140-861 Id St.","879561","Tripura"
"396","Ap #595-6789 Amet Rd.","653661","Nagaland"
"397","987-8961 Semper Avenue","668245","Uttar Pradesh"
"398","Ap #523-4191 Justo. Ave","876955","Uttarakhand"
"399","3371 A Street","642842","Assam"
"400","928-9300 Aenean St.","743356","Uttarakhand"
"401","Ap #330-5848 Lectus Road","354774","Karnataka"
"402","Ap #158-3156 Feugiat. Road","336240","Karnataka"
"403","Ap #358-4676 Diam Street","631451","Manipur"
"404","667-1874 Eleifend Road","707421","Dadra and Nagar Haveli"
"405","558-8308 Adipiscing Rd.","442462","Arunachal Pradesh"
"406","264-3633 Ac St.","783277","Uttarakhand"
"407","Ap #739-1275 Eget St.","967897","Nagaland"
"408","8562 Semper Avenue","330941","Tamil Nadu"
"409","P.O. Box 203, 6947 Eu, Rd.","286881","Pondicherry"
"410","Ap #327-4941 Ultrices Avenue","989670","Jammu and Kashmir"
"411","Ap #205-7258 Vel Road","622536","Meghalaya"
"412","P.O. Box 930, 6063 Magna Street","530321","Delhi"
"413","7927 Nulla Rd.","791932","Goa"
"414","106-4831 Id St.","181615","Manipur"
"415","206-8063 Aliquam St.","297211","Mizoram"
"416","357-1427 Lorem St.","671891","Jharkhand"
"417","869-8101 Est, St.","148572","Andaman and Nicobar Islands"
"418","Ap #823-811 Sed St.","809871","Chandigarh"
"419","874-4637 Lectus. Rd.","343746","Dadra and Nagar Haveli"
"420","1068 Pellentesque Ave","886867","Sikkim"
"421","933-2480 Enim. Avenue","269772","Gujarat"
"422","3195 Curabitur Av.","135676","Bihar"
"423","510-4454 Nullam Av.","712607","Assam"
"424","Ap #767-6847 Semper Av.","651289","Nagaland"
"425","1848 Lorem St.","341303","Rajasthan"
"426","P.O. Box 811, 6315 Dis Street","518728","Nagaland"
"427","P.O. Box 779, 4688 Nulla Road","636757","Assam"
"428","358-1386 Nibh St.","231499","Meghalaya"
"429","509-9955 Suspendisse Ave","795572","Chandigarh"
"430","P.O. Box 610, 4477 Metus. Road","780560","West Bengal"
"431","2041 Urna. Av.","251503","Sikkim"
"432","773-6262 Scelerisque Av.","138542","Sikkim"
"433","529-4394 Dignissim. Rd.","277676","Daman and Diu"
"434","469-2739 Consequat St.","807261","Karnataka"
"435","538-2018 Curabitur Road","925778","Andhra Pradesh"
"436","Ap #835-1337 Sed Avenue","887676","Tamil Nadu"
"437","272-8490 Egestas Rd.","398739","Kerala"
"438","479-1416 Ornare Av.","638574","Rajasthan"
"439","Ap #205-7087 Eu, Rd.","311183","Chhattisgarh"
"440","Ap #598-5750 Convallis, Street","546554","Punjab"
"441","Ap #646-7641 Eros Rd.","507033","Gujarat"
"442","Ap #450-5742 Sed Ave","612928","Daman and Diu"
"443","892-6890 At Street","473749","Karnataka"
"444","Ap #664-8720 Ornare Street","750133","Bihar"
"445","Ap #799-1203 At Rd.","773853","Goa"
"446","P.O. Box 946, 1591 Rutrum Ave","138742","Sikkim"
"447","590-6172 Vitae Rd.","362752","Madhya Pradesh"
"448","Ap #292-5997 Aliquet Av.","227448","Kerala"
"449","798-3069 Eu St.","492916","Arunachal Pradesh"
"450","227-6323 Curae Rd.","988321","Meghalaya"
"451","304-5544 Tincidunt Av.","111854","Arunachal Pradesh"
"452","783-8689 Velit St.","882753","Delhi"
"453","9861 Pede, Street","507779","Haryana"
"454","P.O. Box 185, 3665 Magna Street","682223","Nagaland"
"455","Ap #770-3927 Ipsum Street","165992","Chhattisgarh"
"456","P.O. Box 695, 221 Quam Rd.","717828","Delhi"
"457","693 Vitae Rd.","141634","Gujarat"
"458","Ap #621-5855 Amet Avenue","565952","Arunachal Pradesh"
"459","Ap #285-8879 Elit. St.","562812","Pondicherry"
"460","Ap #442-6196 Et, St.","234266","Daman and Diu"
"461","9115 Justo. St.","241892","Sikkim"
"462","395-3873 Sit Avenue","363817","Haryana"
"463","822-109 Integer Avenue","267225","Andaman and Nicobar Islands"
"464","8662 Tellus Rd.","568163","Delhi"
"465","P.O. Box 507, 5025 Neque Street","690694","Chandigarh"
"466","P.O. Box 776, 3245 Erat Ave","685844","Manipur"
"467","3891 Lacinia Av.","199786","Uttarakhand"
"468","2322 Elit. Road","487577","Meghalaya"
"469","Ap #760-5658 Egestas Av.","636217","Pondicherry"
"470","742-4487 At Av.","811583","Bihar"
"471","P.O. Box 603, 6718 Praesent Rd.","718311","Goa"
"472","664-3440 Tellus Ave","553270","Jammu and Kashmir"
"473","Ap #495-8674 Arcu. Avenue","924742","Rajasthan"
"474","Ap #468-4599 Pede. St.","456153","Dadra and Nagar Haveli"
"475","Ap #403-7474 Sed Street","342541","Kerala"
"476","P.O. Box 593, 9393 Nulla Av.","654445","Chhattisgarh"
"477","P.O. Box 658, 8105 Nec, Av.","155620","Uttar Pradesh"
"478","256-4224 Eros Av.","166420","Sikkim"
"479","P.O. Box 517, 1057 Urna Road","612008","Dadra and Nagar Haveli"
"480","364-4793 A, Av.","784661","Kerala"
"481","Ap #178-3658 Elit, Road","872363","Mizoram"
"482","Ap #635-6968 Donec St.","724032","Maharastra"
"483","696-3537 Accumsan Rd.","595289","Himachal Pradesh"
"484","P.O. Box 247, 4680 Facilisis Av.","612223","Chandigarh"
"485","618-4571 Libero. Avenue","118121","Andhra Pradesh"
"486","Ap #854-7626 Montes, Street","330916","Andaman and Nicobar Islands"
"487","P.O. Box 534, 5805 Nibh St.","932165","Assam"
"488","Ap #641-3243 At, Av.","447256","Himachal Pradesh"
"489","165-7107 A, Road","817471","Nagaland"
"490","Ap #723-6839 Tempor Road","765504","Uttarakhand"
"491","Ap #971-5383 Ac Rd.","946874","Haryana"
"492","655-125 Et, Ave","444617","Nagaland"
"493","524-3410 Cum St.","365211","West Bengal"
"494","471-1404 Purus. Avenue","371198","Chandigarh"
"495","1474 Auctor. Road","272475","Andaman and Nicobar Islands"
"496","P.O. Box 895, 9038 Nonummy Av.","277136","Punjab"
"497","9569 Ante Street","450101","Uttar Pradesh"
"498","Ap #361-9150 Et St.","936366","Goa"
"499","Ap #511-4573 Augue St.","348555","Madhya Pradesh"
"500","5299 Aenean Rd.","836519","Tripura"
"501","P.O. Box 713, 5539 Imperdiet Street","117041","Pondicherry"
"502","561-4660 Dictum Road","894736","Mizoram"
"503","Ap #634-9253 Laoreet Avenue","981262","Jharkhand"
"504","6554 Tincidunt Avenue","158583","Uttarakhand"
"505","P.O. Box 605, 7352 Et Road","357226","Punjab"
"506","568-7689 Leo. Ave","807269","Dadra and Nagar Haveli"
"507","Ap #511-596 Fringilla St.","617028","Daman and Diu"
"508","556-9411 Amet, Rd.","858202","Rajasthan"
"509","P.O. Box 197, 3518 Blandit Rd.","623821","Tripura"
"510","Ap #602-8595 Urna Av.","655956","Andhra Pradesh"
"511","Ap #587-8426 Sit Avenue","742316","Himachal Pradesh"
"512","993-2213 Blandit Avenue","879551","Tripura"
"513","Ap #182-4368 Donec Rd.","533615","Karnataka"
"514","7378 Sem. Rd.","448163","Arunachal Pradesh"
"515","Ap #412-9186 Sapien. St.","719145","Madhya Pradesh"
"516","4417 Turpis. St.","328219","Karnataka"
"517","213-9337 Aliquet Rd.","574719","Chhattisgarh"
"518","9539 Ut St.","165734","Karnataka"
"519","Ap #628-5241 Ridiculus Ave","744946","Kerala"
"520","121-284 Tempus Av.","440428","Meghalaya"
"521","Ap #646-6215 Donec Road","771885","Odisha"
"522","P.O. Box 973, 9584 Sodales Rd.","272488","Kerala"
"523","Ap #687-9394 Sed St.","870527","Chhattisgarh"
"524","P.O. Box 411, 2967 Mauris Road","762317","Karnataka"
"525","2383 Erat. Avenue","774446","Uttar Pradesh"
"526","709-7521 Non, Rd.","586715","Bihar"
"527","P.O. Box 942, 9859 Purus. Road","602487","Bihar"
"528","3141 Eu Rd.","577793","Himachal Pradesh"
"529","Ap #726-1096 Duis Av.","267636","Meghalaya"
"530","Ap #619-9749 Sapien Street","786577","Assam"
"531","P.O. Box 264, 2443 Malesuada. Road","213421","West Bengal"
"532","P.O. Box 440, 8382 Inceptos Av.","258965","Chhattisgarh"
"533","486-6900 Mollis. Road","133998","Arunachal Pradesh"
"534","Ap #815-2658 Imperdiet Street","753787","Uttar Pradesh"
"535","Ap #976-1695 Quis Av.","886752","Rajasthan"
"536","P.O. Box 751, 6741 Ac Road","582369","Gujarat"
"537","751-5027 Quam. St.","266125","Bihar"
"538","Ap #851-569 Donec Avenue","444327","Jammu and Kashmir"
"539","526-3310 Porttitor Avenue","240357","Tamil Nadu"
"540","8112 Erat, Avenue","204625","Nagaland"
"541","954 Orci Rd.","843434","Daman and Diu"
"542","P.O. Box 398, 9342 Ac St.","537335","Sikkim"
"543","106-1226 Urna, Street","481557","Madhya Pradesh"
"544","142-6852 Luctus, Rd.","875463","Haryana"
"545","4143 Natoque Av.","424634","Tamil Nadu"
"546","Ap #141-9666 Justo. St.","784781","Uttar Pradesh"
"547","P.O. Box 499, 5714 Vel, Street","256344","Daman and Diu"
"548","364-5075 Proin Avenue","284796","Mizoram"
"549","P.O. Box 546, 1390 Nonummy Rd.","677796","Mizoram"
"550","Ap #631-1669 Ut Street","902676","Jammu and Kashmir"
"551","634-9047 Lobortis Ave","344589","Haryana"
"552","969-786 Imperdiet St.","867335","Chhattisgarh"
"553","577-5126 Donec St.","175406","Dadra and Nagar Haveli"
"554","Ap #126-2624 Fermentum Street","418226","Uttar Pradesh"
"555","P.O. Box 707, 2073 Est St.","477845","Sikkim"
"556","Ap #325-8311 Accumsan Av.","746485","Andhra Pradesh"
"557","Ap #996-6051 Nulla. Av.","632375","Goa"
"558","P.O. Box 792, 6774 Nunc Road","755293","Manipur"
"559","Ap #446-1389 Neque St.","355762","Rajasthan"
"560","P.O. Box 845, 7112 Ut Rd.","792475","Himachal Pradesh"
"561","232-1995 Aenean Street","991231","Tripura"
"562","P.O. Box 190, 155 Praesent Road","626532","Andaman and Nicobar Islands"
"563","P.O. Box 489, 698 Nascetur St.","286836","Rajasthan"
"564","778-8306 Pede. Road","373885","Andhra Pradesh"
"565","Ap #366-1409 Id, Av.","847609","Punjab"
"566","962-5896 Enim Avenue","222163","Uttarakhand"
"567","P.O. Box 258, 1959 Fusce Av.","368817","Kerala"
"568","P.O. Box 512, 4087 Ornare, Rd.","855326","Karnataka"
"569","P.O. Box 816, 2451 Sem Av.","466513","Himachal Pradesh"
"570","Ap #577-1753 Nulla Street","317945","Delhi"
"571","386-4570 Nulla. St.","943567","Himachal Pradesh"
"572","7360 Ante Rd.","242466","Madhya Pradesh"
"573","P.O. Box 184, 2760 Varius. Ave","673782","West Bengal"
"574","363-2209 Ipsum. Rd.","652045","Maharastra"
"575","227-7672 Eu St.","982011","Uttarakhand"
"576","P.O. Box 490, 9221 Venenatis St.","211649","Odisha"
"577","7067 Nec, Rd.","515721","Rajasthan"
"578","P.O. Box 251, 4113 Tincidunt St.","734685","Kerala"
"579","795-4208 Arcu Ave","314669","Rajasthan"
"580","Ap #970-8371 Massa Av.","333113","Jharkhand"
"581","P.O. Box 705, 829 Sollicitudin Street","378877","Uttarakhand"
"582","Ap #392-4766 Quam Ave","644446","Himachal Pradesh"
"583","635-1680 Nec, St.","855798","Jammu and Kashmir"
"584","P.O. Box 613, 6368 Dui. Av.","338124","Chandigarh"
"585","115-7724 Nunc Ave","890893","Odisha"
"586","Ap #878-7834 Eu Ave","154768","Dadra and Nagar Haveli"
"587","189-7793 Auctor, Avenue","261512","Uttarakhand"
"588","P.O. Box 261, 5895 Sed Rd.","185581","Dadra and Nagar Haveli"
"589","605-8283 Nulla Ave","294109","Lakshadweep"
"590","831-4747 Phasellus Ave","628725","Kerala"
"591","896-5737 Velit St.","641577","Assam"
"592","P.O. Box 200, 5504 Enim, Rd.","228368","Kerala"
"593","Ap #791-5646 Pede Rd.","425205","Maharastra"
"594","639 Aliquam Rd.","132934","Rajasthan"
"595","234-2213 Mi, Street","161833","Sikkim"
"596","Ap #983-8600 Facilisis St.","427534","Tamil Nadu"
"597","P.O. Box 950, 5867 Mollis St.","462218","Kerala"
"598","P.O. Box 982, 7658 Tincidunt Road","678785","Chandigarh"
"599","934-2464 Urna Avenue","347756","Madhya Pradesh"
"600","Ap #730-4973 Ridiculus Rd.","733182","Chandigarh"
"601","825 Magna Rd.","430775","Tamil Nadu"
"602","Ap #177-7708 Mauris. Av.","926578","Haryana"
"603","P.O. Box 900, 8552 Turpis Av.","456518","Himachal Pradesh"
"604","747-9968 Facilisis St.","841172","Delhi"
"605","Ap #708-326 Metus. Rd.","529845","Arunachal Pradesh"
"606","Ap #316-5913 Sed St.","232756","Odisha"
"607","Ap #414-7232 Morbi Street","253165","Pondicherry"
"608","P.O. Box 943, 3975 Arcu. Rd.","753784","Tamil Nadu"
"609","P.O. Box 713, 6144 Laoreet Av.","271576","Nagaland"
"610","Ap #271-3857 Sodales Ave","522398","Chandigarh"
"611","9548 Ut Rd.","267347","Uttar Pradesh"
"612","894-2462 Velit Rd.","782828","Karnataka"
"613","Ap #497-3689 Aliquam Street","605921","Tripura"
"614","186-217 Elit, Rd.","656267","Dadra and Nagar Haveli"
"615","1433 Imperdiet Av.","382323","Uttar Pradesh"
"616","265-3564 Nunc, Street","362970","Uttar Pradesh"
"617","477-9922 Ante Street","822719","Daman and Diu"
"618","Ap #377-1638 Molestie. Street","617278","Madhya Pradesh"
"619","P.O. Box 502, 9614 A Ave","416172","Andhra Pradesh"
"620","964-1532 Duis Avenue","754753","Jharkhand"
"621","1261 Tellus Street","214468","Chandigarh"
"622","149-1506 Sed Ave","626869","Tripura"
"623","Ap #582-7269 Ornare Street","378117","Daman and Diu"
"624","P.O. Box 117, 3594 Mus. Street","733581","Maharastra"
"625","679-5136 Diam Ave","514042","Karnataka"
"626","189-5682 Eu, Rd.","688298","Nagaland"
"627","P.O. Box 158, 6850 Rhoncus. Av.","685888","Goa"
"628","639-7594 Luctus Road","875350","Maharastra"
"629","Ap #675-4358 Nullam Road","984493","Jharkhand"
"630","Ap #442-4945 Libero. St.","336745","Lakshadweep"
"631","315-5672 Pede. St.","532857","Andaman and Nicobar Islands"
"632","4889 Lacinia Rd.","631583","Assam"
"633","650-9191 Morbi Road","443774","Arunachal Pradesh"
"634","P.O. Box 875, 3926 Blandit Av.","541829","Odisha"
"635","Ap #137-2372 Diam. Av.","416783","Dadra and Nagar Haveli"
"636","Ap #562-5896 Vitae, Road","258042","Andhra Pradesh"
"637","4185 At, Rd.","647230","Chandigarh"
"638","P.O. Box 815, 7003 Sed St.","466378","Himachal Pradesh"
"639","P.O. Box 729, 3303 Eu Road","211430","Jharkhand"
"640","Ap #897-6277 Aliquet Street","628496","Dadra and Nagar Haveli"
"641","168-7305 Turpis Av.","821673","Delhi"
"642","2101 Aenean St.","749558","Jharkhand"
"643","Ap #380-8340 Aliquam St.","450654","Mizoram"
"644","7654 Enim. St.","356138","Himachal Pradesh"
"645","520-9395 Nec Avenue","794685","Punjab"
"646","480-4046 Fusce Rd.","242477","Madhya Pradesh"
"647","Ap #334-2454 Dui, Ave","382907","Tamil Nadu"
"648","P.O. Box 403, 8462 Pulvinar Av.","211747","Assam"
"649","Ap #600-9890 Porttitor Road","876123","Sikkim"
"650","Ap #169-1394 Vulputate Street","384417","Kerala"
"651","260-3270 Id Road","692624","Jharkhand"
"652","602-412 Congue, Ave","474037","Karnataka"
"653","P.O. Box 171, 3471 Sed Rd.","622193","Uttarakhand"
"654","Ap #921-3694 Integer St.","796168","Bihar"
"655","481-3659 Vehicula. Road","635257","Pondicherry"
"656","P.O. Box 860, 8499 Sapien. St.","754157","Tamil Nadu"
"657","Ap #738-9336 Vitae Rd.","350284","Rajasthan"
"658","909-7048 Dapibus Avenue","647741","West Bengal"
"659","Ap #986-1698 Donec Rd.","693452","Uttarakhand"
"660","P.O. Box 567, 6722 Netus St.","401267","Rajasthan"
"661","476-7993 Ipsum Avenue","613850","Uttar Pradesh"
"662","Ap #784-2097 Vestibulum St.","521618","Jammu and Kashmir"
"663","Ap #286-5454 Dui Road","264365","Pondicherry"
"664","9886 Ligula. Rd.","607335","Uttarakhand"
"665","8230 Egestas. Street","428228","Goa"
"666","713-5632 Faucibus St.","751556","Sikkim"
"667","977-338 Sed Rd.","185145","Punjab"
"668","4483 Enim. Road","429228","Andaman and Nicobar Islands"
"669","Ap #250-2757 Consequat, St.","358343","Delhi"
"670","Ap #205-9445 Mus. St.","207555","Uttarakhand"
"671","Ap #757-7112 Feugiat Ave","490837","Sikkim"
"672","Ap #908-7136 Ac Street","781867","Arunachal Pradesh"
"673","333-1769 Malesuada Street","260552","Meghalaya"
"674","Ap #845-1929 Eu, St.","211232","Uttarakhand"
"675","Ap #175-2108 Penatibus Av.","516251","Meghalaya"
"676","P.O. Box 743, 3549 Massa. St.","673724","Haryana"
"677","Ap #104-1429 Ligula. St.","485694","Bihar"
"678","P.O. Box 764, 2584 Sed St.","532102","Chandigarh"
"679","607-719 Velit Road","472477","Punjab"
"680","Ap #189-9011 Ad St.","441619","Dadra and Nagar Haveli"
"681","Ap #314-5271 Nec St.","548266","Assam"
"682","Ap #357-6717 Amet Av.","491411","Uttar Pradesh"
"683","Ap #333-6773 Dolor Road","340215","Himachal Pradesh"
"684","Ap #135-741 Erat St.","378266","Maharastra"
"685","6146 Fusce Road","744322","Bihar"
"686","2008 Sed St.","597534","Jharkhand"
"687","346-7331 Mauris. Street","928369","Tripura"
"688","5219 At Rd.","934852","Uttarakhand"
"689","Ap #137-5972 Sem, Street","878833","Nagaland"
"690","Ap #318-8116 Egestas Ave","164826","Tamil Nadu"
"691","Ap #664-3089 Nec Road","643681","Goa"
"692","P.O. Box 846, 8368 Mauris Street","481102","Lakshadweep"
"693","Ap #292-9893 Dignissim Av.","437692","Madhya Pradesh"
"694","Ap #795-7237 Nunc St.","853965","Himachal Pradesh"
"695","Ap #591-2299 Sed Rd.","334757","Rajasthan"
"696","P.O. Box 480, 5270 Sed Av.","742325","Chandigarh"
"697","Ap #326-1916 Ipsum. Rd.","267970","Chandigarh"
"698","Ap #849-914 Neque Rd.","257349","Madhya Pradesh"
"699","3472 Eget Rd.","387828","Tamil Nadu"
"700","P.O. Box 460, 4762 Et, Street","334872","Rajasthan"
"701","6311 Varius. St.","759278","Karnataka"
"702","P.O. Box 139, 7795 Pede St.","834434","Meghalaya"
"703","8357 Hendrerit Ave","440977","West Bengal"
"704","298-3604 Enim. Ave","967187","Manipur"
"705","398-7886 Nisi Street","278166","Bihar"
"706","2682 Et, Avenue","183679","Uttarakhand"
"707","Ap #282-7613 Lobortis, Road","888583","Chhattisgarh"
"708","Ap #558-2621 Fringilla St.","464672","Andaman and Nicobar Islands"
"709","P.O. Box 167, 7623 Adipiscing. Rd.","906326","Delhi"
"710","P.O. Box 767, 9780 Auctor St.","942310","Bihar"
"711","P.O. Box 615, 9644 Ante Ave","697361","Daman and Diu"
"712","Ap #280-850 Est St.","899673","Tamil Nadu"
"713","130-8872 Sit Rd.","157657","Sikkim"
"714","P.O. Box 122, 9913 Malesuada Ave","946282","Tamil Nadu"
"715","P.O. Box 768, 2124 Neque Rd.","747116","Chhattisgarh"
"716","Ap #756-4847 Pede. Road","250276","Punjab"
"717","Ap #832-4446 Augue St.","998852","Odisha"
"718","Ap #469-8898 Mauris Rd.","624388","Odisha"
"719","Ap #226-2515 Dui. St.","264758","Kerala"
"720","Ap #455-1969 Nonummy Street","747561","Kerala"
"721","426-8363 Tincidunt Street","926598","Tripura"
"722","882-4624 Non, Road","538383","Odisha"
"723","522-2154 Consectetuer, Av.","883312","Odisha"
"724","365-5136 In Street","285118","Chhattisgarh"
"725","324-1218 Risus. Road","651452","Karnataka"
"726","Ap #667-1932 Ultrices St.","362123","Meghalaya"
"727","P.O. Box 964, 387 Cursus. St.","336486","Delhi"
"728","Ap #694-3897 Lectus St.","102353","Uttar Pradesh"
"729","104-883 Quisque Rd.","842683","Andaman and Nicobar Islands"
"730","Ap #508-1453 Accumsan Ave","559589","Karnataka"
"731","804-3745 Ligula Ave","737231","Goa"
"732","P.O. Box 683, 8753 Fringilla Rd.","694918","Delhi"
"733","P.O. Box 868, 1615 Sem. St.","887236","Mizoram"
"734","P.O. Box 314, 5214 Massa. Ave","869331","Nagaland"
"735","292-8756 Fermentum Av.","383472","Goa"
"736","Ap #354-7557 Tempor Road","415958","Punjab"
"737","P.O. Box 560, 6020 Vel, Av.","238422","Uttarakhand"
"738","655-5739 Non Rd.","513873","Uttarakhand"
"739","832-3835 Imperdiet Avenue","218352","Uttar Pradesh"
"740","428-5215 Donec St.","693277","Manipur"
"741","P.O. Box 461, 579 Metus. Road","296314","Madhya Pradesh"
"742","123-2652 Augue St.","574257","Dadra and Nagar Haveli"
"743","Ap #196-2624 Semper St.","110477","Rajasthan"
"744","431-704 Cursus Street","661438","Bihar"
"745","Ap #661-7013 At St.","146021","Lakshadweep"
"746","Ap #895-9302 Dolor St.","361154","Andaman and Nicobar Islands"
"747","112-1315 At Street","414744","Haryana"
"748","P.O. Box 675, 655 Risus St.","616401","Punjab"
"749","Ap #502-2258 Nulla. Avenue","803241","Sikkim"
"750","Ap #784-9730 A, St.","753302","Sikkim"
"751","476-3641 Duis Ave","337068","Dadra and Nagar Haveli"
"752","P.O. Box 490, 5296 Euismod St.","530148","Pondicherry"
"753","P.O. Box 758, 3944 Amet, Road","260994","Manipur"
"754","100-1821 Fusce Rd.","612916","Jammu and Kashmir"
"755","9317 Sem St.","771117","Rajasthan"
"756","7865 Quisque Rd.","674724","Gujarat"
"757","563-9410 Ipsum. Road","453172","Rajasthan"
"758","9107 Lorem Rd.","324742","Dadra and Nagar Haveli"
"759","752-9042 Nam Street","950251","Himachal Pradesh"
"760","P.O. Box 384, 2110 Ac Avenue","125716","Rajasthan"
"761","710-2338 Aenean Rd.","666387","Karnataka"
"762","P.O. Box 688, 5162 Ut St.","513167","Delhi"
"763","315-6874 Molestie. St.","684781","Arunachal Pradesh"
"764","292-4914 Aliquam Avenue","681267","Jharkhand"
"765","8506 Nisi. St.","611666","Delhi"
"766","Ap #113-3620 Dignissim St.","486722","Jharkhand"
"767","Ap #732-9852 Orci, Av.","417614","Kerala"
"768","6916 A, Rd.","698643","Haryana"
"769","668-2601 Ligula. St.","482661","Sikkim"
"770","8431 Nulla Av.","126528","Mizoram"
"771","Ap #556-3499 Curabitur Street","578144","Andhra Pradesh"
"772","797-8169 Mattis Rd.","523252","Pondicherry"
"773","Ap #987-9269 Sit Rd.","377761","Assam"
"774","P.O. Box 236, 8437 Et Rd.","834915","Maharastra"
"775","Ap #591-505 Sed St.","785584","Nagaland"
"776","509-1987 Ultricies Street","666443","Rajasthan"
"777","745-3785 Metus. Rd.","653903","Delhi"
"778","565-7869 Orci. Rd.","617255","Tripura"
"779","400-7127 Lorem, Avenue","968663","Meghalaya"
"780","P.O. Box 660, 7232 Nunc Rd.","756623","Mizoram"
"781","Ap #104-7650 Feugiat Street","768978","Odisha"
"782","Ap #731-7473 Non, St.","713273","Mizoram"
"783","P.O. Box 627, 2609 Nulla Ave","168976","Tamil Nadu"
"784","8257 Erat. Rd.","801128","Delhi"
"785","P.O. Box 130, 4628 Nunc. Av.","891232","Pondicherry"
"786","802-6034 Quis Rd.","475176","Rajasthan"
"787","3602 In Rd.","916812","Himachal Pradesh"
"788","132-8918 Odio. Ave","260174","Maharastra"
"789","P.O. Box 477, 8746 Fringilla Rd.","321136","Tripura"
"790","Ap #705-4555 Sed Ave","632633","Assam"
"791","Ap #979-3026 Ante St.","517738","Mizoram"
"792","Ap #992-2219 Adipiscing St.","711063","Andhra Pradesh"
"793","Ap #778-1906 Mattis Av.","324134","Himachal Pradesh"
"794","2218 Malesuada Rd.","307861","Haryana"
"795","P.O. Box 654, 5900 Non, St.","382637","Daman and Diu"
"796","7382 Sem Av.","571944","Jammu and Kashmir"
"797","874-2027 Urna Rd.","387465","Pondicherry"
"798","P.O. Box 345, 861 Et Avenue","586839","Sikkim"
"799","Ap #196-4874 Semper Ave","585666","Uttarakhand"
"800","717-1108 Cras Road","874382","Himachal Pradesh"
"801","P.O. Box 530, 8971 Nullam Avenue","407783","Karnataka"
"802","446-1867 Feugiat St.","336776","Chhattisgarh"
"803","549-951 Cum Rd.","760263","Andhra Pradesh"
"804","2805 Lectus St.","739313","Bihar"
"805","407-6965 Sapien Av.","806207","Chandigarh"
"806","9410 Amet St.","393762","Uttar Pradesh"
"807","Ap #553-1263 Sit St.","525347","Rajasthan"
"808","P.O. Box 498, 4492 Auctor St.","764146","Uttarakhand"
"809","Ap #100-2287 Risus. Av.","774468","Kerala"
"810","360 Enim. Rd.","843484","Manipur"
"811","Ap #497-1423 Dis Rd.","482217","Himachal Pradesh"
"812","544-6140 Ullamcorper. Rd.","241507","Arunachal Pradesh"
"813","Ap #117-8380 Luctus Av.","150286","Sikkim"
"814","Ap #931-6536 Purus. Rd.","972154","Jammu and Kashmir"
"815","Ap #481-5756 Lacus, Av.","817480","Gujarat"
"816","457 Aliquet. Rd.","825843","Tamil Nadu"
"817","Ap #577-9693 A, St.","977413","Assam"
"818","P.O. Box 786, 1063 Pede. Street","454499","Nagaland"
"819","298-4137 Euismod Ave","766962","Arunachal Pradesh"
"820","Ap #734-9146 Ipsum Ave","230684","Daman and Diu"
"821","854-5088 Facilisis, Rd.","791284","Kerala"
"822","3964 Cursus. Rd.","378314","Pondicherry"
"823","Ap #422-592 Tempor Avenue","311418","Dadra and Nagar Haveli"
"824","454-6553 In Rd.","644425","Jharkhand"
"825","796-1611 Pede. Rd.","147016","Punjab"
"826","Ap #293-7951 Suscipit, Rd.","377975","Mizoram"
"827","910-4549 Nisi. Ave","550530","Uttar Pradesh"
"828","Ap #563-3026 Eu St.","610578","Tamil Nadu"
"829","Ap #292-5248 Ullamcorper, St.","237928","Jammu and Kashmir"
"830","Ap #620-2412 Lorem, St.","301252","Nagaland"
"831","P.O. Box 595, 5049 Molestie Rd.","682351","Uttar Pradesh"
"832","193 Ante St.","586083","Sikkim"
"833","P.O. Box 922, 5715 Faucibus Av.","619771","Rajasthan"
"834","P.O. Box 453, 5318 Metus St.","425168","Punjab"
"835","Ap #439-2937 Ac Av.","366845","Andaman and Nicobar Islands"
"836","1895 Tortor, Avenue","474627","Madhya Pradesh"
"837","Ap #300-7340 Et St.","325848","Maharastra"
"838","P.O. Box 211, 1205 Non St.","418839","Manipur"
"839","619-939 Volutpat St.","796568","Manipur"
"840","5783 Adipiscing Road","118621","Haryana"
"841","210-6874 Accumsan Street","685396","Kerala"
"842","5913 Non, Ave","577752","Jharkhand"
"843","575-7397 Felis. Street","478286","Jharkhand"
"844","624-7188 Placerat Av.","443366","Sikkim"
"845","2752 Pede Av.","417788","Gujarat"
"846","Ap #454-7521 Est. Av.","355458","Punjab"
"847","Ap #436-4541 Congue St.","462652","Chandigarh"
"848","Ap #145-2955 Pellentesque Rd.","803221","Andhra Pradesh"
"849","Ap #595-3054 Eget St.","728342","Himachal Pradesh"
"850","188-6695 Nisi St.","585549","Punjab"
"851","839-8787 Sem, St.","736273","Himachal Pradesh"
"852","Ap #308-3989 Eget Av.","384477","Karnataka"
"853","4907 Non Rd.","436425","Meghalaya"
"854","P.O. Box 890, 1922 Sed, Av.","176465","Odisha"
"855","4179 Lorem St.","853958","Karnataka"
"856","6589 Malesuada St.","772071","Andhra Pradesh"
"857","638-204 Praesent St.","545632","Andhra Pradesh"
"858","3452 Erat, Avenue","559607","Tripura"
"859","Ap #970-9672 Risus Road","124682","Haryana"
"860","Ap #171-6776 Tincidunt St.","547216","Sikkim"
"861","Ap #299-1666 Vivamus Rd.","550761","Arunachal Pradesh"
"862","P.O. Box 819, 2775 Non, Av.","653671","Daman and Diu"
"863","Ap #265-7418 Diam Av.","513783","Himachal Pradesh"
"864","Ap #860-4358 Sed St.","385523","Daman and Diu"
"865","876-9765 Accumsan St.","621868","Uttar Pradesh"
"866","Ap #398-9810 Cursus Rd.","812516","Assam"
"867","Ap #277-3959 Convallis Rd.","518657","Nagaland"
"868","457-5339 Metus Ave","721267","Uttarakhand"
"869","P.O. Box 410, 6175 Mauris Road","832786","Uttar Pradesh"
"870","P.O. Box 322, 6167 Vel, Rd.","571347","Delhi"
"871","Ap #541-1106 Luctus St.","627273","Daman and Diu"
"872","837-3804 Ultricies St.","759555","Maharastra"
"873","P.O. Box 603, 2964 Montes, Rd.","757888","Mizoram"
"874","657-5634 Auctor. Street","656017","Goa"
"875","887-2425 Sagittis Rd.","511582","Jharkhand"
"876","226-1277 Molestie Av.","785252","Uttar Pradesh"
"877","Ap #179-8336 Egestas Street","472686","Madhya Pradesh"
"878","P.O. Box 769, 8646 Lorem, Rd.","828335","Kerala"
"879","7990 Felis Ave","651472","Chandigarh"
"880","232-7659 Eleifend Road","762456","Daman and Diu"
"881","845-4357 Odio Rd.","518414","Lakshadweep"
"882","2250 Dignissim Av.","435898","Pondicherry"
"883","P.O. Box 422, 7359 Pellentesque Rd.","632715","Sikkim"
"884","P.O. Box 647, 4047 Iaculis Road","852282","Bihar"
"885","367-2819 Amet Street","749275","Andhra Pradesh"
"886","P.O. Box 831, 9599 Donec Ave","377668","Punjab"
"887","5468 Iaculis Rd.","120283","Andhra Pradesh"
"888","337-9573 Amet Road","515211","West Bengal"
"889","973-7432 Tellus Rd.","955181","Odisha"
"890","Ap #103-5504 Purus. Ave","269437","Manipur"
"891","5781 Quam. Road","942161","Maharastra"
"892","848-2185 Velit St.","168718","Andaman and Nicobar Islands"
"893","7205 Sem Street","285418","Odisha"
"894","P.O. Box 365, 4222 Magna Street","607768","Maharastra"
"895","P.O. Box 692, 5828 Massa St.","688954","Nagaland"
"896","Ap #242-974 Accumsan Rd.","636868","Pondicherry"
"897","101 Nulla Av.","668425","West Bengal"
"898","909-345 Ultrices St.","221756","Punjab"
"899","Ap #393-543 Donec St.","446234","Tripura"
"900","193-6915 Montes, Av.","308647","Jharkhand"
"901","P.O. Box 615, 1401 Nunc Rd.","673951","Manipur"
"902","P.O. Box 154, 5276 Ullamcorper. St.","221155","Punjab"
"903","P.O. Box 775, 2758 Non, Av.","386342","Andhra Pradesh"
"904","218-6912 Imperdiet Street","614455","Uttarakhand"
"905","817-4894 Sapien, Av.","368243","Madhya Pradesh"
"906","Ap #212-4082 Mus. St.","335750","Uttar Pradesh"
"907","Ap #309-4969 Elementum, Road","196343","Tamil Nadu"
"908","P.O. Box 102, 5496 Sit Rd.","421516","Nagaland"
"909","169-8186 Elit, Street","464840","Mizoram"
"910","293-2066 Luctus Street","758367","West Bengal"
"911","Ap #642-3352 Leo. Street","255161","Sikkim"
"912","9805 Nec Rd.","622635","Dadra and Nagar Haveli"
"913","855-4731 Dolor Rd.","382187","Odisha"
"914","183-5562 Dolor Rd.","180380","Maharastra"
"915","Ap #161-3014 Cum Avenue","913151","Chhattisgarh"
"916","P.O. Box 885, 8486 Vulputate Av.","242663","Rajasthan"
"917","Ap #715-7919 Semper Rd.","466394","Jharkhand"
"918","P.O. Box 394, 4825 Adipiscing Street","790485","Daman and Diu"
"919","P.O. Box 374, 7570 Nulla Av.","437125","Pondicherry"
"920","582-383 Ipsum St.","450485","Pondicherry"
"921","Ap #244-2557 Sit Av.","458023","West Bengal"
"922","P.O. Box 821, 2502 Eget, St.","436382","Rajasthan"
"923","391-5562 Amet, St.","526743","Chandigarh"
"924","4695 Est. St.","404845","Uttar Pradesh"
"925","580-5295 Felis St.","838788","Gujarat"
"926","158-3236 Lobortis St.","542025","Chhattisgarh"
"927","443-1338 Magna. Av.","804046","Bihar"
"928","Ap #911-5012 Malesuada Rd.","562275","Chandigarh"
"929","Ap #869-7902 Tristique St.","332373","Nagaland"
"930","665-7769 Accumsan St.","716649","Dadra and Nagar Haveli"
"931","P.O. Box 852, 6948 Et Avenue","417652","Karnataka"
"932","751-9711 Nunc Av.","117447","Daman and Diu"
"933","877-353 Nisl Rd.","974349","Delhi"
"934","3090 Metus. Rd.","543300","Delhi"
"935","P.O. Box 192, 695 Nunc St.","767066","Rajasthan"
"936","769-8936 In Street","393241","Tripura"
"937","Ap #418-9845 Magnis Street","913156","Delhi"
"938","P.O. Box 735, 6235 Neque. Street","824721","Nagaland"
"939","398-3773 Curabitur St.","453463","Kerala"
"940","Ap #909-2594 A Av.","387828","Karnataka"
"941","P.O. Box 957, 7092 Cum Avenue","524142","Pondicherry"
"942","Ap #804-4707 Venenatis Rd.","743742","Chandigarh"
"943","Ap #374-8309 Donec Road","736223","Sikkim"
"944","Ap #115-3978 Quis, Avenue","242011","Andaman and Nicobar Islands"
"945","P.O. Box 359, 4558 Consequat St.","494452","Punjab"
"946","322-2982 Vehicula. Av.","528888","Goa"
"947","3704 Interdum. St.","790551","Punjab"
"948","Ap #118-2760 Sit Road","568255","Jammu and Kashmir"
"949","P.O. Box 335, 2161 Sed Ave","792382","Mizoram"
"950","807-9138 Facilisis Rd.","875068","Daman and Diu"
"951","Ap #919-9321 Diam. Ave","405902","Chhattisgarh"
"952","Ap #892-2289 Pellentesque St.","524162","West Bengal"
"953","149-8207 Vitae, St.","476555","Mizoram"
"954","555-6974 Sagittis Rd.","806720","Chhattisgarh"
"955","814-8378 Lorem Rd.","233348","Odisha"
"956","126-5566 Rhoncus. Rd.","210265","Dadra and Nagar Haveli"
"957","479-1443 Cras Ave","211602","Bihar"
"958","727-1259 In Road","526680","Pondicherry"
"959","Ap #148-8395 In Ave","323515","Andhra Pradesh"
"960","118-4500 Aenean Road","588386","Odisha"
"961","375-2722 Fringilla Avenue","541816","Goa"
"962","7638 Ante Street","831408","Arunachal Pradesh"
"963","Ap #385-3870 Commodo Avenue","723376","Assam"
"964","503-3548 Mauris Street","856516","Chhattisgarh"
"965","473-6880 Aenean Rd.","518622","Chandigarh"
"966","Ap #372-7312 Amet, Av.","437522","Andaman and Nicobar Islands"
"967","7388 Nulla St.","908134","Chhattisgarh"
"968","197-4560 Scelerisque Road","369543","Goa"
"969","Ap #510-5384 Aliquet. Rd.","751672","Nagaland"
"970","1377 Nec Street","534656","Dadra and Nagar Haveli"
"971","144-1599 Etiam Av.","167862","Lakshadweep"
"972","227-165 Ligula. Street","146343","Andaman and Nicobar Islands"
"973","798-9119 Etiam Street","835664","Maharastra"
"974","Ap #910-698 Blandit Ave","631111","Chhattisgarh"
"975","7238 Nibh. Rd.","570618","Dadra and Nagar Haveli"
"976","306-580 Interdum. St.","463355","Andhra Pradesh"
"977","8246 Euismod Street","426361","Arunachal Pradesh"
"978","Ap #832-905 Libero. Street","342297","Odisha"
"979","3537 Blandit Ave","414526","Sikkim"
"980","902-7188 Tincidunt. Road","410455","Maharastra"
"981","Ap #500-3399 Ligula. Ave","518692","Maharastra"
"982","Ap #671-5690 Aliquam Rd.","776811","Mizoram"
"983","1155 Eros Road","555743","Jammu and Kashmir"
"984","Ap #291-167 Ac St.","947262","Andaman and Nicobar Islands"
"985","457-3676 Semper Road","262037","Rajasthan"
"986","P.O. Box 925, 1956 Et, Av.","553088","Pondicherry"
"987","6273 In Av.","346261","Himachal Pradesh"
"988","Ap #602-7963 Primis Road","435173","Karnataka"
"989","813-416 Lobortis Avenue","392188","Odisha"
"990","2187 Pharetra. Street","647403","Daman and Diu"
"991","P.O. Box 928, 5329 Aliquet St.","566450","Tripura"
"992","P.O. Box 658, 7841 Nulla St.","143196","Odisha"
"993","6189 Bibendum Road","216188","Andaman and Nicobar Islands"
"994","719-2838 Faucibus Ave","465758","Sikkim"
"995","798-7995 Ullamcorper. Road","443877","Tamil Nadu"
"996","P.O. Box 921, 8038 At, St.","312728","Lakshadweep"
"997","4868 Volutpat. Rd.","222422","Kerala"
"998","Ap #946-3662 Ipsum Ave","486231","Punjab"
"999","P.O. Box 582, 8237 Mauris Av.","638751","Uttar Pradesh"
"1000","Ap #639-4359 Euismod Avenue","585737","Lakshadweep"
"1001","279-8102 Arcu. St.","814881","Mizoram"
"1002","7655 Diam. Ave","987825","Madhya Pradesh"
"1003","5481 Eu Ave","495176","Andhra Pradesh"
"1004","8295 Nullam St.","382646","Manipur"
"1005","Ap #512-6473 Amet Rd.","708300","West Bengal"
"1006","Ap #373-4984 Nulla Ave","441636","Punjab"
"1007","930-3885 Tortor, Rd.","357771","Delhi"
"1008","416-5776 Ligula. Avenue","410759","Andaman and Nicobar Islands"
"1009","673-3237 Hendrerit St.","882627","Andhra Pradesh"
"1010","Ap #617-9802 Tincidunt Rd.","605915","Chandigarh"
"1011","622-4387 Nullam St.","370221","Kerala"
"1012","9803 Nunc Rd.","268781","Assam"
"1013","4674 Tempor Rd.","512352","Arunachal Pradesh"
"1014","Ap #368-6662 Et Ave","711984","Himachal Pradesh"
"1015","Ap #757-9571 Id, Rd.","368671","Haryana"
"1016","P.O. Box 470, 9478 Ut Street","388399","Delhi"
"1017","Ap #621-2872 Fusce Rd.","575252","Jammu and Kashmir"
"1018","3981 Purus, St.","276170","Gujarat"
"1019","P.O. Box 100, 5239 Aptent St.","510264","Andaman and Nicobar Islands"
"1020","9731 Urna. St.","855357","Goa"
"1021","P.O. Box 335, 850 A, St.","937094","Uttarakhand"
"1022","105-3490 Diam St.","190479","Bihar"
"1023","Ap #627-9176 Nec, Road","686453","Punjab"
"1024","Ap #507-5678 Ut Rd.","824671","Maharastra"
"1025","P.O. Box 307, 7498 Porttitor Street","385421","Bihar"
"1026","6242 Et Street","347188","Delhi"
"1027","Ap #247-3884 Luctus, Avenue","277356","Uttarakhand"
"1028","Ap #373-2604 Pharetra St.","761246","Daman and Diu"
"1029","544-672 Et Avenue","621537","Karnataka"
"1030","Ap #957-7771 Id Rd.","551323","Karnataka"
"1031","Ap #979-7257 Ultricies St.","218558","Chhattisgarh"
"1032","876-4711 Risus Av.","979776","Chhattisgarh"
"1033","Ap #405-1200 Sit Road","692167","Pondicherry"
"1034","7211 Ultrices. St.","715264","Andaman and Nicobar Islands"
"1035","425-6972 Auctor, Street","750159","Punjab"
"1036","P.O. Box 388, 5928 Lobortis St.","861368","Assam"
"1037","4999 Ante Rd.","446183","West Bengal"
"1038","Ap #178-9564 Sollicitudin Rd.","766889","Andaman and Nicobar Islands"
"1039","2071 Viverra. Rd.","223412","Bihar"
"1040","530 Dui. Rd.","833139","Sikkim"
"1041","350-6454 Sit Avenue","653839","Arunachal Pradesh"
"1042","P.O. Box 931, 9546 Ut Rd.","688715","Andaman and Nicobar Islands"
"1043","9764 Vitae, Rd.","220669","Gujarat"
"1044","2635 Tortor St.","985250","Pondicherry"
"1045","P.O. Box 312, 3054 Mauris Avenue","871667","Andhra Pradesh"
"1046","363-3172 Dui Av.","632444","Chandigarh"
"1047","111-3608 Massa. Rd.","572421","Sikkim"
"1048","703-7961 Tempor Road","212744","Pondicherry"
"1049","2337 Quam. Street","215845","Mizoram"
"1050","8739 Phasellus St.","448553","Karnataka"
"1051","135-628 Arcu. Ave","646492","Uttar Pradesh"
"1052","P.O. Box 114, 2261 Blandit Avenue","107419","Jammu and Kashmir"
"1053","Ap #278-2933 Sem Rd.","548635","Karnataka"
"1054","P.O. Box 753, 9176 Quis Av.","286674","Kerala"
"1055","P.O. Box 322, 2455 Scelerisque Rd.","575518","Punjab"
"1056","P.O. Box 688, 3118 Viverra. Road","768826","Tripura"
"1057","P.O. Box 415, 2040 Morbi Ave","588266","Madhya Pradesh"
"1058","Ap #247-1594 Condimentum St.","178354","Pondicherry"
"1059","547-7027 Mi St.","516567","Gujarat"
"1060","607-4997 Lectus. Street","143003","Rajasthan"
"1061","9494 Dis Av.","285785","Uttar Pradesh"
"1062","4829 Orci Road","535880","Chhattisgarh"
"1063","5028 Aliquam Rd.","673533","Uttar Pradesh"
"1064","Ap #762-2318 Sed Rd.","334866","Himachal Pradesh"
"1065","P.O. Box 748, 3978 Scelerisque Ave","282452","Andhra Pradesh"
"1066","Ap #633-8810 Viverra. Ave","458130","Punjab"
"1067","775-744 Augue St.","256718","Jammu and Kashmir"
"1068","P.O. Box 901, 1802 Mauris. Road","619438","Madhya Pradesh"
"1069","P.O. Box 513, 1344 Pharetra. Rd.","341457","Odisha"
"1070","5247 Ornare Rd.","656223","Mizoram"
"1071","P.O. Box 336, 4343 Sed Ave","545819","Manipur"
"1072","P.O. Box 239, 118 Dolor. Avenue","304871","Andhra Pradesh"
"1073","Ap #433-7399 Laoreet, Road","442174","Madhya Pradesh"
"1074","565-9761 Eget Rd.","739577","Mizoram"
"1075","285-3013 Consectetuer Ave","261297","Sikkim"
"1076","Ap #228-6549 Tincidunt. Road","544544","Dadra and Nagar Haveli"
"1077","P.O. Box 145, 8796 Egestas. St.","103017","Himachal Pradesh"
"1078","939-6229 Eget Rd.","948140","Jharkhand"
"1079","488-7965 Per St.","293312","Sikkim"
"1080","153-1414 Sagittis Ave","597763","Tripura"
"1081","105-351 Suspendisse Av.","341220","Sikkim"
"1082","705-4255 Vulputate Ave","137079","Chandigarh"
"1083","Ap #523-9393 Elementum, Av.","615816","Madhya Pradesh"
"1084","1051 Proin Street","612441","Punjab"
"1085","834-5223 Sed St.","583834","Delhi"
"1086","733-9626 Praesent Rd.","382980","Dadra and Nagar Haveli"
"1087","8733 Ut, St.","284918","Pondicherry"
"1088","P.O. Box 177, 6646 Commodo Street","622470","Madhya Pradesh"
"1089","P.O. Box 762, 7452 Sit Ave","115561","Punjab"
"1090","P.O. Box 561, 698 Integer Rd.","806132","Chandigarh"
"1091","Ap #102-2053 Aliquam Road","171020","Uttar Pradesh"
"1092","Ap #193-2728 Lobortis. Road","303047","Jammu and Kashmir"
"1093","Ap #229-2606 Vitae St.","146186","Pondicherry"
"1094","P.O. Box 592, 9859 Orci, Road","609745","Tamil Nadu"
"1095","542-2944 Ligula. Rd.","638068","Tamil Nadu"
"1096","P.O. Box 734, 8857 Mi. Avenue","614545","Uttar Pradesh"
"1097","9519 Odio St.","984098","Kerala"
"1098","Ap #881-4763 Euismod Street","350062","Haryana"
"1099","192-4901 At, St.","224131","Nagaland"
"1100","Ap #262-1380 Aliquam St.","974566","Nagaland"
"1101","935-7587 Adipiscing Rd.","388347","Meghalaya"
"1102","783-5480 Neque Avenue","863923","Assam"
"1103","Ap #424-6258 Dis Street","334255","Chhattisgarh"
"1104","Ap #451-8221 Lobortis, Rd.","984953","Pondicherry"
"1105","913-3966 Vulputate, St.","587472","Haryana"
"1106","Ap #288-7905 Est, Avenue","440544","Uttar Pradesh"
"1107","Ap #560-4220 Cras Rd.","769090","Rajasthan"
"1108","Ap #791-5493 Ut St.","141101","Maharastra"
"1109","P.O. Box 189, 9803 Accumsan Rd.","778591","Assam"
"1110","531-8065 Morbi Ave","744752","Andaman and Nicobar Islands"
"1111","P.O. Box 884, 3435 Quis Street","798688","Jammu and Kashmir"
"1112","2698 Ipsum. Rd.","435435","Sikkim"
"1113","Ap #255-1612 Ad Road","776476","Dadra and Nagar Haveli"
"1114","581-5969 Egestas Street","527046","Daman and Diu"
"1115","Ap #838-6589 Tempus St.","570740","Delhi"
"1116","3611 Cursus Rd.","489623","Rajasthan"
"1117","P.O. Box 133, 7158 Nisl. Street","817161","Maharastra"
"1118","Ap #763-9388 Nisi. St.","412727","Andaman and Nicobar Islands"
"1119","605-3630 Nec Ave","236566","Haryana"
"1120","Ap #180-168 Nisl. St.","762684","Uttar Pradesh"
"1121","P.O. Box 256, 9193 Purus. St.","429372","Chhattisgarh"
"1122","2036 Nulla Street","178871","Manipur"
"1123","544-7023 Donec St.","515418","Jharkhand"
"1124","P.O. Box 553, 896 Donec Street","262568","Jharkhand"
"1125","412-1958 Erat Rd.","737361","Sikkim"
"1126","536-1562 Vestibulum, Avenue","263864","Dadra and Nagar Haveli"
"1127","382-9268 Nec Rd.","768783","Nagaland"
"1128","P.O. Box 107, 3919 Odio. Ave","485211","Tripura"
"1129","896-5342 Ligula. Street","443134","Jharkhand"
"1130","222-4542 Natoque Rd.","767226","Haryana"
"1131","P.O. Box 904, 5147 Luctus Ave","642882","Pondicherry"
"1132","481-4063 Vel St.","786612","West Bengal"
"1133","P.O. Box 283, 4582 Enim, Rd.","324895","Karnataka"
"1134","Ap #951-7327 Tempor St.","802256","Rajasthan"
"1135","Ap #873-2115 Lorem, Ave","668017","Arunachal Pradesh"
"1136","P.O. Box 211, 3377 Nec Rd.","739621","Goa"
"1137","103-2331 A, Rd.","443466","Lakshadweep"
"1138","P.O. Box 746, 6287 Vulputate, Rd.","138530","West Bengal"
"1139","Ap #197-8449 In Rd.","250638","West Bengal"
"1140","882-8238 In Rd.","459197","Uttar Pradesh"
"1141","4426 Dictum. Road","412285","Kerala"
"1142","488-9087 Tellus. Street","477828","Kerala"
"1143","306-4845 Interdum Avenue","467428","Kerala"
"1144","Ap #186-8195 Cras Av.","841871","Odisha"
"1145","P.O. Box 248, 8550 Dis Av.","432157","Meghalaya"
"1146","908-3813 Metus Street","638687","Uttar Pradesh"
"1147","Ap #183-8542 Nascetur Street","349285","Arunachal Pradesh"
"1148","Ap #992-8344 Malesuada Street","610851","Uttar Pradesh"
"1149","516-4153 Dictum St.","444817","Maharastra"
"1150","Ap #378-5143 Donec Rd.","434773","Jammu and Kashmir"
"1151","Ap #573-845 Lectus Rd.","385268","Meghalaya"
"1152","438-6514 Viverra. Ave","402176","Andhra Pradesh"
"1153","Ap #849-6177 Duis Rd.","215291","Andhra Pradesh"
"1154","P.O. Box 350, 1560 Maecenas Avenue","235935","Himachal Pradesh"
"1155","650-9923 A, Ave","493167","Sikkim"
"1156","Ap #269-9931 Nulla Rd.","789618","Dadra and Nagar Haveli"
"1157","9690 Elit Rd.","376036","Jharkhand"
"1158","Ap #413-7622 Sagittis Ave","358497","Andhra Pradesh"
"1159","Ap #639-2387 A, Av.","936706","Assam"
"1160","224-8692 In St.","115548","West Bengal"
"1161","240-923 Risus. Street","699481","Andaman and Nicobar Islands"
"1162","946-9050 Ut, Rd.","339631","Daman and Diu"
"1163","Ap #710-1801 Sem Rd.","408713","Himachal Pradesh"
"1164","961-7988 Ultricies St.","892667","Jharkhand"
"1165","Ap #770-4137 Sagittis Rd.","625054","Jharkhand"
"1166","6496 Fusce Ave","225283","Chandigarh"
"1167","Ap #384-6300 Dolor Rd.","683888","Goa"
"1168","984 Non Rd.","856766","Haryana"
"1169","Ap #520-4677 Iaculis Rd.","747096","Madhya Pradesh"
"1170","Ap #978-7740 Quis Avenue","297345","Lakshadweep"
"1171","Ap #757-8321 Auctor Avenue","382032","Meghalaya"
"1172","P.O. Box 784, 2445 Mi. Avenue","273834","Goa"
"1173","P.O. Box 508, 6734 Ornare, Av.","802308","Bihar"
"1174","235-1772 Enim St.","122648","Tripura"
"1175","5472 Est Av.","276253","Maharastra"
"1176","144-643 Fringilla Street","820016","Dadra and Nagar Haveli"
"1177","Ap #133-8168 Faucibus Av.","744481","Uttar Pradesh"
"1178","7659 Ultricies Road","595168","Uttarakhand"
"1179","7025 Lorem, Rd.","327263","Mizoram"
"1180","8285 Egestas Rd.","356368","Delhi"
"1181","Ap #755-2597 Malesuada St.","856488","Uttar Pradesh"
"1182","Ap #950-3541 Vivamus Rd.","718533","West Bengal"
"1183","Ap #987-7364 Vel Rd.","373115","Punjab"
"1184","262-3930 Natoque Rd.","785845","Arunachal Pradesh"
"1185","Ap #321-2949 Iaculis Rd.","327647","Arunachal Pradesh"
"1186","841-2038 Amet Ave","374329","Nagaland"
"1187","P.O. Box 503, 8529 Nisl. Avenue","284987","Manipur"
"1188","Ap #281-4297 Vitae St.","761385","Uttarakhand"
"1189","P.O. Box 740, 4542 Nibh. St.","134211","Andaman and Nicobar Islands"
"1190","162-5201 Lorem Av.","865903","Madhya Pradesh"
"1191","314-9108 Elit. Road","622598","Jharkhand"
"1192","897-453 Cursus Road","686673","Uttar Pradesh"
"1193","441-706 Nulla Ave","801167","Haryana"
"1194","Ap #410-5404 Bibendum. Ave","878403","Uttarakhand"
"1195","262-1694 Lacinia St.","532809","Kerala"
"1196","6130 Dui. St.","249549","Delhi"
"1197","118-3787 Cum Ave","727537","Delhi"
"1198","526-9128 A, Av.","458777","Punjab"
"1199","117-4602 Ridiculus Rd.","813677","Gujarat"
"1200","Ap #431-1371 Donec Street","669419","Lakshadweep"
"1201","7937 Et St.","518644","Bihar"
"1202","Ap #237-5438 Semper Ave","511425","Lakshadweep"
"1203","Ap #275-2405 Eu Avenue","619771","Manipur"
"1204","Ap #763-3994 Ac Ave","229529","Uttarakhand"
"1205","P.O. Box 998, 8969 Curabitur Ave","365565","Meghalaya"
"1206","318-1565 Enim. Road","311840","Haryana"
"1207","P.O. Box 284, 6027 Erat Road","864785","Pondicherry"
"1208","781-5068 Et, Rd.","354203","Jharkhand"
"1209","Ap #282-7418 Pharetra Ave","218218","Jammu and Kashmir"
"1210","948-6168 Consectetuer Road","581337","Bihar"
"1211","2865 Libero. Street","744062","Kerala"
"1212","Ap #581-3736 Cras Rd.","833447","Andhra Pradesh"
"1213","430-9131 Orci. Rd.","766781","Jammu and Kashmir"
"1214","526-1357 Sem Street","465431","Jammu and Kashmir"
"1215","636-1418 Vitae Road","837381","Karnataka"
"1216","Ap #845-842 Ipsum Rd.","847221","Tamil Nadu"
"1217","730-7399 Sem Av.","804109","Maharastra"
"1218","605-3442 Mauris, Rd.","328316","Haryana"
"1219","4597 Quis St.","210286","Gujarat"
"1220","Ap #149-3485 Mauris Av.","547753","Tamil Nadu"
"1221","P.O. Box 620, 8716 Vulputate St.","397731","Mizoram"
"1222","P.O. Box 572, 1628 Molestie Street","483403","Karnataka"
"1223","P.O. Box 208, 5689 Ridiculus St.","383342","Gujarat"
"1224","635-947 Morbi Ave","217883","Jharkhand"
"1225","157-3360 Semper Av.","513933","Lakshadweep"
"1226","Ap #329-9544 Nunc Av.","363586","Nagaland"
"1227","Ap #183-3758 Vestibulum Avenue","434991","Karnataka"
"1228","Ap #781-2477 Etiam Ave","436148","Pondicherry"
"1229","5900 Nulla Avenue","987742","Andhra Pradesh"
"1230","Ap #675-9249 A Rd.","272335","Madhya Pradesh"
"1231","808-4845 Blandit Av.","928563","Pondicherry"
"1232","218-6931 Dui St.","158744","Arunachal Pradesh"
"1233","P.O. Box 916, 9416 Vestibulum Street","535665","Uttar Pradesh"
"1234","Ap #413-1967 Sed St.","454822","Assam"
"1235","Ap #422-3829 Felis, Rd.","232641","Uttarakhand"
"1236","Ap #703-5220 Diam Rd.","712627","Bihar"
"1237","558-5435 Mauris Road","636687","Bihar"
"1238","204-8997 Neque. Avenue","521106","Kerala"
"1239","Ap #305-8515 Orci Avenue","439924","Kerala"
"1240","P.O. Box 438, 7106 Consectetuer Rd.","231581","Andhra Pradesh"
"1241","882-3111 Mollis Ave","862073","Dadra and Nagar Haveli"
"1242","417-3363 Semper Rd.","514175","Daman and Diu"
"1243","854 Sed Av.","720886","Rajasthan"
"1244","2311 A, Avenue","668131","Mizoram"
"1245","Ap #723-9948 Id Rd.","211673","Andhra Pradesh"
"1246","Ap #807-692 Tellus. St.","801722","Maharastra"
"1247","Ap #187-4572 Semper Ave","386678","Chhattisgarh"
"1248","604-2852 Semper St.","417909","Kerala"
"1249","8722 Fermentum Ave","221413","Daman and Diu"
"1250","828-4412 Aptent Rd.","674275","Uttar Pradesh"
"1251","6543 Sem, Ave","782988","Daman and Diu"
"1252","3125 Vitae Street","497368","Bihar"
"1253","Ap #323-6584 Purus Av.","318576","Gujarat"
"1254","243-6115 Mollis Av.","111146","Bihar"
"1255","Ap #984-518 Libero Rd.","437204","Chandigarh"
"1256","Ap #564-4937 Donec Av.","723301","Meghalaya"
"1257","Ap #724-2195 Vitae Road","659752","Daman and Diu"
"1258","3043 Tortor. Ave","633759","Manipur"
"1259","P.O. Box 843, 6423 Tortor, Road","841472","Kerala"
"1260","7256 Sodales Rd.","477506","Pondicherry"
"1261","423-8389 Enim Av.","439457","West Bengal"
"1262","831-2646 Porttitor St.","713458","Rajasthan"
"1263","Ap #610-5519 Ipsum Avenue","669889","Punjab"
"1264","734-7763 Luctus St.","791850","Himachal Pradesh"
"1265","P.O. Box 257, 5517 Enim, Ave","392764","Chhattisgarh"
"1266","P.O. Box 509, 281 Placerat. Av.","932105","Andaman and Nicobar Islands"
"1267","P.O. Box 155, 8493 Dolor Ave","334307","Bihar"
"1268","Ap #943-7933 Sodales. St.","356058","Jharkhand"
"1269","656 Lacus Rd.","627179","Pondicherry"
"1270","Ap #479-1813 Ante. Road","417518","Chhattisgarh"
"1271","Ap #248-5688 Mauris Road","814433","Haryana"
"1272","P.O. Box 236, 1667 Senectus St.","359735","Meghalaya"
"1273","P.O. Box 244, 4347 Consectetuer Rd.","252611","Assam"
"1274","P.O. Box 146, 9637 Metus. St.","777568","Andaman and Nicobar Islands"
"1275","P.O. Box 754, 5559 Velit. Street","972142","Nagaland"
"1276","Ap #925-5241 Tempor Avenue","616184","Odisha"
"1277","5606 Volutpat. Ave","607230","Chandigarh"
"1278","349-4280 Orci. Avenue","683481","Mizoram"
"1279","Ap #773-3057 Ac, Av.","546123","Mizoram"
"1280","707-2852 In, Ave","574807","Goa"
"1281","438-6393 Sem Rd.","513432","Jammu and Kashmir"
"1282","Ap #229-7373 Amet, St.","875120","Bihar"
"1283","942-3332 Convallis Street","136838","Odisha"
"1284","Ap #143-3156 Nulla. St.","169672","Sikkim"
"1285","192-8364 Metus Street","748975","West Bengal"
"1286","Ap #256-5283 Amet, Road","554316","Andhra Pradesh"
"1287","P.O. Box 500, 6999 In Av.","223225","Delhi"
"1288","580-9475 Phasellus Rd.","297527","Madhya Pradesh"
"1289","P.O. Box 230, 7698 Condimentum. Street","774584","Tamil Nadu"
"1290","P.O. Box 758, 9041 Eu Avenue","723044","Kerala"
"1291","Ap #705-7148 Lorem. St.","533389","Odisha"
"1292","587-7471 Erat, Rd.","458441","Andhra Pradesh"
"1293","Ap #360-4485 Tristique Ave","443240","Chandigarh"
"1294","Ap #691-3487 Nunc Street","619665","Rajasthan"
"1295","896-9656 Non Rd.","449622","Jharkhand"
"1296","2897 Gravida. St.","472252","Karnataka"
"1297","614-9202 Eu, Rd.","139964","Andhra Pradesh"
"1298","877-5468 Libero. Rd.","751776","Dadra and Nagar Haveli"
"1299","P.O. Box 792, 9451 Ac St.","281765","Tamil Nadu"
"1300","Ap #365-8282 Ipsum Av.","969604","Nagaland"
"1301","115-4616 Risus. Av.","768525","West Bengal"
"1302","1055 Ante. Rd.","742183","Chhattisgarh"
"1303","5650 Urna. Ave","484017","Uttarakhand"
"1304","Ap #696-5522 Lorem Avenue","745253","Chhattisgarh"
"1305","Ap #106-802 Mauris Ave","562777","Delhi"
"1306","Ap #592-3477 Metus Rd.","611679","Delhi"
"1307","Ap #955-4585 Purus. Ave","445493","Maharastra"
"1308","2954 Donec Av.","975935","Tamil Nadu"
"1309","935-9934 Ut Ave","284426","Rajasthan"
"1310","Ap #957-4338 Curae Ave","755838","Maharastra"
"1311","216-9428 Morbi Rd.","245564","Rajasthan"
"1312","P.O. Box 731, 3093 Natoque Street","864136","Dadra and Nagar Haveli"
"1313","P.O. Box 803, 5496 Lobortis Avenue","864584","Himachal Pradesh"
"1314","855-8499 Tempor Rd.","215070","Daman and Diu"
"1315","P.O. Box 480, 2204 Et Rd.","848024","Uttarakhand"
"1316","P.O. Box 126, 6219 Natoque Ave","571858","Tripura"
"1317","732-9199 Nibh St.","936729","Jammu and Kashmir"
"1318","Ap #688-4290 Malesuada Street","537380","Gujarat"
"1319","581-3043 Dictum Rd.","535264","Jharkhand"
"1320","373-5690 Nulla. Avenue","143514","Bihar"
"1321","3884 Malesuada Av.","970738","Karnataka"
"1322","P.O. Box 245, 2634 Quisque St.","685769","Andhra Pradesh"
"1323","855-2795 Vitae, Avenue","237900","Punjab"
"1324","577 Mauris, Street","624758","Goa"
"1325","Ap #375-8561 Nam Ave","308015","Tripura"
"1326","P.O. Box 403, 3720 Eu St.","580617","Assam"
"1327","710-8273 Sapien, Road","384562","Uttar Pradesh"
"1328","356-780 Molestie Avenue","465816","Tripura"
"1329","595-7038 Tincidunt Avenue","571738","Chhattisgarh"
"1330","7102 Quisque Av.","188561","Dadra and Nagar Haveli"
"1331","Ap #295-8408 Tristique Rd.","531666","Uttar Pradesh"
"1332","Ap #736-4241 Vitae Ave","779233","Delhi"
"1333","214-1054 Dis Rd.","898845","Kerala"
"1334","856-527 Mauris Rd.","222465","Uttarakhand"
"1335","Ap #223-5337 Sem. Rd.","517990","West Bengal"
"1336","Ap #486-7280 Feugiat Avenue","343699","Assam"
"1337","893-1769 Posuere Avenue","891331","Chandigarh"
"1338","639-3628 Tempus Av.","557372","Odisha"
"1339","567-2204 Mattis Avenue","976210","Manipur"
"1340","301-7578 Enim, Av.","784003","Delhi"
"1341","Ap #546-1842 Integer Street","387088","West Bengal"
"1342","P.O. Box 370, 1277 Lacinia Rd.","755026","Karnataka"
"1343","274-3282 Et, Ave","688188","Manipur"
"1344","417-2941 Nunc. Rd.","733721","Andaman and Nicobar Islands"
"1345","P.O. Box 180, 2584 Vel Street","738283","Gujarat"
"1346","470-5314 Nunc, Avenue","437824","Pondicherry"
"1347","658-5467 Habitant St.","364817","Meghalaya"
"1348","1066 Vehicula. Ave","736190","Daman and Diu"
"1349","123-8480 Risus. Ave","307100","Odisha"
"1350","P.O. Box 370, 4813 Elementum, Av.","922972","Bihar"
"1351","361-428 Vestibulum Road","543146","Goa"
"1352","Ap #374-1641 Interdum. Road","537881","West Bengal"
"1353","750-3415 In Rd.","419150","Gujarat"
"1354","Ap #592-4253 Pharetra Av.","524813","Goa"
"1355","509-453 Dolor. Rd.","666842","Punjab"
"1356","519-9498 Dapibus St.","518474","Andhra Pradesh"
"1357","448-9598 Nam Rd.","574448","Kerala"
"1358","291-8283 Suspendisse Avenue","815856","Nagaland"
"1359","876-378 At Street","433745","Lakshadweep"
"1360","P.O. Box 808, 4509 Tincidunt St.","583324","Himachal Pradesh"
"1361","688 Imperdiet Rd.","764163","Rajasthan"
"1362","P.O. Box 977, 6079 Quisque St.","235425","Pondicherry"
"1363","Ap #317-8109 Nullam St.","836123","Chhattisgarh"
"1364","847-4445 At, St.","456656","Jharkhand"
"1365","P.O. Box 462, 6680 Suspendisse Av.","805333","Punjab"
"1366","P.O. Box 656, 7135 Maecenas Rd.","272170","Andaman and Nicobar Islands"
"1367","P.O. Box 471, 5576 In St.","822472","Jharkhand"
"1368","Ap #894-7871 Vivamus Street","831870","Chhattisgarh"
"1369","P.O. Box 228, 5700 Ligula. Rd.","315878","Gujarat"
"1370","900-6592 Nullam St.","112018","Arunachal Pradesh"
"1371","Ap #643-1783 Laoreet, St.","960013","Jharkhand"
"1372","Ap #945-4768 Nulla St.","238256","Lakshadweep"
"1373","Ap #149-1367 Tempus Rd.","657144","Chhattisgarh"
"1374","474-7695 Natoque Ave","218981","Jammu and Kashmir"
"1375","6723 Ante, Street","444523","Andaman and Nicobar Islands"
"1376","292-7992 Eros. Av.","737174","Lakshadweep"
"1377","Ap #982-7747 Aliquet Ave","837599","Tamil Nadu"
"1378","252-7335 Scelerisque Av.","264164","Delhi"
"1379","305-5784 Pulvinar St.","999082","Meghalaya"
"1380","Ap #331-4579 Mauris Road","948988","Tamil Nadu"
"1381","9304 Dolor Ave","853118","Tripura"
"1382","470-3646 Nec Ave","674323","Karnataka"
"1383","955-2437 Suscipit, Ave","467218","Uttar Pradesh"
"1384","Ap #501-2307 Libero. St.","379626","Goa"
"1385","Ap #178-3873 Nullam Avenue","603174","Arunachal Pradesh"
"1386","Ap #299-5458 Sapien. Rd.","837233","Delhi"
"1387","6784 Aliquam Rd.","612448","Karnataka"
"1388","370-9195 Magna, St.","777744","Haryana"
"1389","Ap #746-1279 Arcu. Avenue","454678","Chhattisgarh"
"1390","606-3441 Ullamcorper, Avenue","322117","Sikkim"
"1391","7797 Quisque Rd.","846288","Odisha"
"1392","167-2677 Ornare, St.","526403","Gujarat"
"1393","Ap #176-6986 Habitant Road","585345","Madhya Pradesh"
"1394","8898 Massa Road","757100","Meghalaya"
"1395","788-3436 Nam Street","626147","Delhi"
"1396","1870 Pellentesque Rd.","869308","Mizoram"
"1397","Ap #292-7960 Facilisis Ave","258853","Himachal Pradesh"
"1398","Ap #679-3521 Fringilla Rd.","488552","Bihar"
"1399","P.O. Box 428, 6520 Ante. Avenue","209883","Maharastra"
"1400","438-7424 Pede Road","589385","Chhattisgarh"
"1401","911-8312 Luctus Av.","631727","Lakshadweep"
"1402","Ap #798-2110 Posuere St.","624899","Rajasthan"
"1403","Ap #887-4806 Metus Avenue","894146","Andhra Pradesh"
"1404","7801 Semper Rd.","369434","Tamil Nadu"
"1405","946-9058 Id, St.","272947","Madhya Pradesh"
"1406","6753 Suspendisse Road","361858","Goa"
"1407","343-9216 Mi Av.","678232","Maharastra"
"1408","P.O. Box 719, 9954 Pede, Av.","687213","Meghalaya"
"1409","Ap #493-7204 Iaculis Road","685217","Chhattisgarh"
"1410","Ap #832-6243 Pharetra. Rd.","155927","Andhra Pradesh"
"1411","145-5790 Eu Av.","556550","Tamil Nadu"
"1412","791-9759 Eu Rd.","421069","Andaman and Nicobar Islands"
"1413","495-8015 Ante, Ave","584621","Tripura"
"1414","Ap #931-7579 Amet Rd.","236112","Mizoram"
"1415","9786 Feugiat Rd.","916373","Nagaland"
"1416","P.O. Box 651, 1294 Eu, Rd.","232796","Jharkhand"
"1417","594-1771 Magnis Rd.","127035","Bihar"
"1418","902-3448 Leo, St.","265261","Lakshadweep"
"1419","6059 Cursus St.","419743","Goa"
"1420","P.O. Box 571, 1128 Tortor. Rd.","128718","Assam"
"1421","169-7460 Cursus Av.","976384","Pondicherry"
"1422","Ap #359-1826 Id, Street","702788","Punjab"
"1423","Ap #569-4745 Vestibulum Rd.","962783","Lakshadweep"
"1424","Ap #860-9978 Sed Ave","384223","Delhi"
"1425","3575 Venenatis Rd.","194291","West Bengal"
"1426","P.O. Box 480, 7311 Libero St.","602415","Chhattisgarh"
"1427","Ap #388-8494 A Av.","870522","Daman and Diu"
"1428","Ap #560-6035 Ut Street","385935","Arunachal Pradesh"
"1429","9862 Vivamus Av.","866925","Madhya Pradesh"
"1430","P.O. Box 426, 9307 Auctor St.","988217","Karnataka"
"1431","Ap #340-4753 Erat Ave","827550","Himachal Pradesh"
"1432","P.O. Box 816, 5541 Tincidunt Rd.","493577","Dadra and Nagar Haveli"
"1433","720-1419 Erat St.","757841","Manipur"
"1434","162-4178 Consequat Road","669253","Jharkhand"
"1435","510-2410 Tellus, St.","315312","Meghalaya"
"1436","754-6992 Donec Ave","693819","Pondicherry"
"1437","P.O. Box 399, 694 Malesuada Rd.","525444","Uttarakhand"
"1438","P.O. Box 295, 7880 Lectus St.","434054","Meghalaya"
"1439","P.O. Box 609, 7085 Donec Avenue","427466","Andaman and Nicobar Islands"
"1440","P.O. Box 717, 8689 Malesuada Rd.","518138","Kerala"
"1441","903-3774 Duis Avenue","176761","Kerala"
"1442","503-2531 Sit Road","721517","Chhattisgarh"
"1443","P.O. Box 282, 439 Purus, Ave","776232","Daman and Diu"
"1444","680-6899 Neque Road","276564","Dadra and Nagar Haveli"
"1445","2213 A St.","747357","Mizoram"
"1446","649-536 At, Rd.","256707","Odisha"
"1447","660-7238 Lacinia Rd.","160445","Delhi"
"1448","Ap #917-6744 Nibh. Avenue","334202","Daman and Diu"
"1449","997-9966 Blandit Rd.","398733","Chandigarh"
"1450","Ap #800-1239 Tincidunt St.","573569","Daman and Diu"
"1451","Ap #909-6274 Etiam Rd.","901439","Gujarat"
"1452","8452 Arcu. Ave","852982","Chhattisgarh"
"1453","P.O. Box 371, 1770 Amet Street","566061","Meghalaya"
"1454","746-7831 Libero. St.","653268","Chhattisgarh"
"1455","Ap #897-9673 Venenatis Avenue","815865","Himachal Pradesh"
"1456","Ap #740-3675 Ad Av.","812278","Odisha"
"1457","Ap #905-3663 Et St.","756517","Manipur"
"1458","Ap #616-4664 Mauris, Av.","735713","Jharkhand"
"1459","511-1217 Magnis St.","114640","Kerala"
"1460","7051 Purus. Avenue","798738","Pondicherry"
"1461","Ap #736-4228 Metus. Rd.","934862","Arunachal Pradesh"
"1462","P.O. Box 947, 1393 Maecenas Ave","288317","Himachal Pradesh"
"1463","313-4318 Semper Ave","306674","Daman and Diu"
"1464","Ap #311-3088 Pellentesque, St.","613824","Himachal Pradesh"
"1465","1000 Eleifend Avenue","569465","Delhi"
"1466","Ap #940-8355 In St.","452234","Odisha"
"1467","Ap #488-6201 Nec Road","737677","Chandigarh"
"1468","P.O. Box 641, 5115 Ut Rd.","565235","Assam"
"1469","P.O. Box 281, 9651 Donec Rd.","677724","Sikkim"
"1470","Ap #967-7091 Integer Avenue","878040","Tamil Nadu"
"1471","Ap #589-2825 A, St.","506843","Jharkhand"
"1472","Ap #414-4792 Etiam St.","337613","Madhya Pradesh"
"1473","P.O. Box 639, 2705 Lorem Street","312054","Andhra Pradesh"
"1474","224 Arcu Road","311152","Rajasthan"
"1475","1120 Ipsum St.","633823","Gujarat"
"1476","Ap #742-7008 Nulla St.","638550","Andhra Pradesh"
"1477","P.O. Box 222, 4808 Ut Rd.","268173","Maharastra"
"1478","796-3847 Enim Road","566296","Mizoram"
"1479","Ap #235-8350 Vulputate, St.","834501","Dadra and Nagar Haveli"
"1480","9507 Fermentum Rd.","773412","Jharkhand"
"1481","Ap #484-8646 Semper, Avenue","739851","Manipur"
"1482","732-9898 Interdum. Road","486835","Uttar Pradesh"
"1483","P.O. Box 635, 378 Dapibus Av.","450972","Bihar"
"1484","Ap #890-5850 Suspendisse Ave","322236","Kerala"
"1485","P.O. Box 631, 4955 Nam Ave","382328","Chandigarh"
"1486","197-3467 Sociosqu Ave","227627","Meghalaya"
"1487","Ap #454-4512 Ridiculus St.","782978","Lakshadweep"
"1488","991-8240 Quam. Rd.","166716","Lakshadweep"
"1489","692 Semper Street","686581","Mizoram"
"1490","Ap #310-5136 Aliquam Rd.","774815","Madhya Pradesh"
"1491","Ap #488-3605 Turpis Rd.","568325","Odisha"
"1492","874-233 Felis. Street","876431","Pondicherry"
"1493","Ap #300-5465 Eget Rd.","366168","Pondicherry"
"1494","7203 Risus. Av.","382656","Rajasthan"
"1495","Ap #293-6991 Egestas Road","116328","Pondicherry"
"1496","465 Mauris Rd.","385838","Chandigarh"
"1497","122-6606 Semper Road","531471","Nagaland"
"1498","193-1096 Quis, St.","255478","Bihar"
"1499","492-6856 Porttitor Ave","563352","Pondicherry"
"1500","698-7971 Lorem, Road","477864","West Bengal"
"1501","Ap #525-9920 Proin Road","472054","Mizoram"
"1502","465-8388 Scelerisque Rd.","324023","Chhattisgarh"
"1503","857-7849 Aliquam St.","375204","Daman and Diu"
"1504","656 Porttitor Rd.","997287","Himachal Pradesh"
"1505","994-8628 Ac Rd.","530179","West Bengal"
"1506","9624 Ut Street","857663","Lakshadweep"
"1507","538-4723 Nibh Rd.","405411","Chandigarh"
"1508","Ap #561-2237 Mi Street","477377","Meghalaya"
"1509","Ap #217-1275 Egestas St.","215020","Delhi"
"1510","Ap #818-4177 Turpis. Street","572020","Maharastra"
"1511","Ap #126-8695 Suspendisse Road","866258","Rajasthan"
"1512","578-8624 Et, St.","772816","Chandigarh"
"1513","Ap #360-5758 Blandit. Av.","491370","Karnataka"
"1514","Ap #726-9425 Elit. Avenue","728866","Daman and Diu"
"1515","Ap #770-4779 Urna, Av.","630847","Nagaland"
"1516","924-7190 Mus. Ave","751321","Nagaland"
"1517","Ap #510-290 Tincidunt Road","345810","Delhi"
"1518","Ap #448-2040 Libero. Ave","847570","Madhya Pradesh"
"1519","924-2291 Libero Avenue","544458","Daman and Diu"
"1520","Ap #404-8222 Posuere Avenue","786563","Jharkhand"
"1521","5419 Per St.","445458","Gujarat"
"1522","975-9845 Nulla Avenue","418703","Dadra and Nagar Haveli"
"1523","Ap #265-2829 Justo Ave","226509","Manipur"
"1524","342-4594 Tortor. Road","157074","Punjab"
"1525","8144 Ac, Av.","875031","Mizoram"
"1526","3352 Donec St.","742617","Tripura"
"1527","786-8367 Suscipit, Ave","805968","Rajasthan"
"1528","6159 Curabitur Rd.","265485","Madhya Pradesh"
"1529","Ap #939-3508 Non, St.","288547","Mizoram"
"1530","Ap #976-3284 Nam Ave","646853","Rajasthan"
"1531","P.O. Box 272, 8554 Justo Avenue","290572","Karnataka"
"1532","169-4151 Tincidunt Av.","793574","Arunachal Pradesh"
"1533","579-3433 Nascetur Ave","855033","Himachal Pradesh"
"1534","Ap #664-2535 Urna Rd.","439888","Karnataka"
"1535","P.O. Box 500, 9475 Consequat Road","202898","Sikkim"
"1536","775-8145 Tellus Rd.","280609","Goa"
"1537","417-2751 Pede. Rd.","239494","Haryana"
"1538","Ap #139-2761 Ligula. St.","786628","Rajasthan"
"1539","Ap #781-2343 Dolor St.","434738","Lakshadweep"
"1540","193-9846 Arcu Rd.","454865","Andaman and Nicobar Islands"
"1541","Ap #820-6361 Sagittis. Avenue","410768","Bihar"
"1542","Ap #408-6958 Id, Road","573817","Rajasthan"
"1543","430-2030 Ac St.","721322","Sikkim"
"1544","800-3372 Sapien. Rd.","679253","Andaman and Nicobar Islands"
"1545","924-8746 Dis Av.","339646","West Bengal"
"1546","8294 Sollicitudin Ave","144543","Bihar"
"1547","334-7468 Donec Rd.","668652","Madhya Pradesh"
"1548","Ap #810-9247 Quis Rd.","668650","Dadra and Nagar Haveli"
"1549","Ap #227-3344 Malesuada Av.","788718","Pondicherry"
"1550","Ap #884-1236 Eget St.","464314","Uttar Pradesh"
"1551","Ap #241-7651 Egestas, Ave","988003","Dadra and Nagar Haveli"
"1552","Ap #606-9755 Hendrerit Av.","375879","West Bengal"
"1553","6487 Sit Rd.","625454","Maharastra"
"1554","Ap #759-9388 Nec, St.","269213","Chandigarh"
"1555","629-9937 Id, Avenue","467651","Sikkim"
"1556","P.O. Box 938, 1796 Vitae St.","472437","Andaman and Nicobar Islands"
"1557","517-1457 Phasellus Road","768641","Haryana"
"1558","P.O. Box 145, 6508 Quam Street","534601","Chhattisgarh"
"1559","4444 Ipsum Rd.","792144","Andaman and Nicobar Islands"
"1560","6308 Neque Rd.","779719","Bihar"
"1561","P.O. Box 387, 5678 Arcu. Rd.","737556","Bihar"
"1562","Ap #357-3091 Arcu. Road","980323","Meghalaya"
"1563","Ap #558-536 Convallis Rd.","371210","Kerala"
"1564","Ap #842-1075 In Rd.","759592","West Bengal"
"1565","Ap #377-1902 Luctus St.","571390","Chhattisgarh"
"1566","313-2540 Velit. Road","416764","Maharastra"
"1567","678-9074 Ut Rd.","126206","Madhya Pradesh"
"1568","1914 Aliquet Rd.","278253","Pondicherry"
"1569","Ap #801-8477 Proin Ave","586398","Goa"
"1570","Ap #679-2710 Lobortis Ave","348401","Kerala"
"1571","Ap #732-1160 Hendrerit Avenue","266668","Haryana"
"1572","Ap #321-2032 A, Avenue","635417","Pondicherry"
"1573","Ap #859-4520 Cum St.","642988","Jharkhand"
"1574","246-6968 Ipsum. Ave","604323","Kerala"
"1575","933-9163 Semper. Avenue","787610","Chandigarh"
"1576","P.O. Box 161, 1419 Mollis Road","914452","Pondicherry"
"1577","860-3493 At Av.","617680","Tripura"
"1578","P.O. Box 212, 8550 Et Av.","877847","Andhra Pradesh"
"1579","906-3659 Faucibus Street","583175","Uttarakhand"
"1580","331-2364 Aliquet St.","325288","Meghalaya"
"1581","882-9426 Dui, St.","381138","Lakshadweep"
"1582","Ap #981-1788 In Street","958836","Nagaland"
"1583","686-1201 Dui. Av.","689526","Maharastra"
"1584","414-5699 Sit St.","283226","Assam"
"1585","Ap #235-4380 Nec Ave","419194","Jharkhand"
"1586","461-4618 Metus. Avenue","242311","Punjab"
"1587","459-1580 Ante St.","737427","Meghalaya"
"1588","6420 Libero. Rd.","453154","Madhya Pradesh"
"1589","Ap #110-8081 Risus. St.","231461","West Bengal"
"1590","606-8361 At, Road","792482","Uttar Pradesh"
"1591","Ap #856-4018 Montes, St.","849824","Lakshadweep"
"1592","P.O. Box 808, 9211 Cras Av.","824583","Assam"
"1593","Ap #430-416 Quis Rd.","571751","Dadra and Nagar Haveli"
"1594","399-378 Eu St.","852734","Daman and Diu"
"1595","277-2170 Est, Rd.","932169","Daman and Diu"
"1596","P.O. Box 508, 395 Turpis Road","645472","Manipur"
"1597","Ap #379-5411 Donec St.","956584","Madhya Pradesh"
"1598","Ap #645-2519 Diam Av.","534122","Odisha"
"1599","Ap #132-3271 Eu St.","878228","Tripura"
"1600","Ap #563-2797 Erat. Ave","495425","Pondicherry"
"1601","P.O. Box 576, 437 Maecenas St.","617301","Meghalaya"
"1602","P.O. Box 986, 3027 Mauris Street","464678","Karnataka"
"1603","P.O. Box 534, 2443 Diam Street","864197","Bihar"
"1604","P.O. Box 116, 4094 Duis Road","749874","Haryana"
"1605","700-3053 Non St.","565848","Himachal Pradesh"
"1606","589-4986 Velit. Rd.","967233","Jharkhand"
"1607","321-7508 Nulla Avenue","486880","Assam"
"1608","Ap #815-3619 Mauris Rd.","346359","Tamil Nadu"
"1609","Ap #471-5607 Elit. Av.","877116","Jharkhand"
"1610","Ap #889-8968 Magna. Rd.","544079","West Bengal"
"1611","Ap #916-9365 Sit Rd.","815332","Delhi"
"1612","Ap #523-3370 Scelerisque Street","376038","Delhi"
"1613","979-6174 Dui. St.","255653","Lakshadweep"
"1614","386-1214 Leo. Rd.","155696","Andaman and Nicobar Islands"
"1615","7610 Pellentesque, Street","938643","Nagaland"
"1616","Ap #123-6730 Dui Rd.","677577","Lakshadweep"
"1617","943-2507 Enim St.","632865","Madhya Pradesh"
"1618","443-7082 Sed Ave","829479","Andaman and Nicobar Islands"
"1619","Ap #741-2712 In Ave","672648","Dadra and Nagar Haveli"
"1620","440-1153 Nascetur Road","133484","Mizoram"
"1621","Ap #124-576 Egestas. Ave","271578","Maharastra"
"1622","P.O. Box 850, 4716 Sed Street","696237","Andhra Pradesh"
"1623","Ap #267-2486 Magnis Av.","882278","Odisha"
"1624","P.O. Box 776, 6335 Dapibus Street","454834","Dadra and Nagar Haveli"
"1625","925-2146 Aliquam, St.","728728","Karnataka"
"1626","Ap #921-7129 Arcu. Street","749560","Chandigarh"
"1627","Ap #176-3182 Arcu Rd.","570462","Himachal Pradesh"
"1628","P.O. Box 347, 6365 Ut Av.","946181","Uttar Pradesh"
"1629","P.O. Box 863, 6505 Enim. Avenue","704901","Haryana"
"1630","Ap #684-7981 Arcu St.","750867","Chhattisgarh"
"1631","Ap #841-4793 Blandit Street","482362","Jammu and Kashmir"
"1632","Ap #261-1824 Convallis Ave","156074","Odisha"
"1633","Ap #748-9626 Eu Avenue","504632","Tamil Nadu"
"1634","Ap #264-1318 Lacinia St.","120133","Andhra Pradesh"
"1635","915-4078 Ut St.","438478","Manipur"
"1636","Ap #373-1903 Amet Av.","842574","Dadra and Nagar Haveli"
"1637","667-5117 Libero. Rd.","118455","Nagaland"
"1638","Ap #516-576 Maecenas Street","291238","Maharastra"
"1639","6748 Ipsum Rd.","315876","Chhattisgarh"
"1640","8463 Convallis Ave","752364","Sikkim"
"1641","P.O. Box 328, 8094 Varius Ave","125848","Assam"
"1642","711-6132 Non, Ave","507780","Assam"
"1643","811-8753 Mi Rd.","683185","West Bengal"
"1644","Ap #812-590 Elit, Av.","411719","Nagaland"
"1645","182-7198 Luctus St.","973359","Daman and Diu"
"1646","Ap #402-4383 Metus. Road","684152","Uttar Pradesh"
"1647","489-2986 Felis. St.","485371","Bihar"
"1648","P.O. Box 457, 4326 Aliquam Avenue","977237","Haryana"
"1649","297-9471 Et St.","679948","Chandigarh"
"1650","479-1700 Nec, Street","564436","Himachal Pradesh"
"1651","489-4636 Egestas Rd.","451578","Himachal Pradesh"
"1652","Ap #523-8328 Cras Ave","815718","Lakshadweep"
"1653","P.O. Box 941, 1563 Sem St.","801553","Jammu and Kashmir"
"1654","Ap #293-9900 Donec Street","398511","Karnataka"
"1655","P.O. Box 969, 4625 Elementum, St.","386326","Chandigarh"
"1656","Ap #447-881 Quisque St.","667362","Kerala"
"1657","Ap #904-8958 Diam Avenue","426232","Delhi"
"1658","335-8343 Donec Ave","668989","Andhra Pradesh"
"1659","460-1413 Vestibulum. St.","236387","Uttar Pradesh"
"1660","Ap #336-3641 Imperdiet St.","652483","Haryana"
"1661","P.O. Box 215, 967 Mollis Street","318135","Uttar Pradesh"
"1662","960-9276 Enim Street","897672","Andaman and Nicobar Islands"
"1663","Ap #732-7290 Nam Street","615216","Rajasthan"
"1664","530-1539 Sed Av.","267151","Andaman and Nicobar Islands"
"1665","P.O. Box 617, 8103 Imperdiet Street","216334","Dadra and Nagar Haveli"
"1666","391-3715 Quam Road","864884","Odisha"
"1667","Ap #157-3925 Neque Av.","688871","Manipur"
"1668","P.O. Box 127, 6324 Non Rd.","340795","Jharkhand"
"1669","Ap #785-9514 Venenatis Rd.","538063","Karnataka"
"1670","8908 Mauris Av.","254480","Rajasthan"
"1671","678-6941 Ipsum Avenue","450092","Mizoram"
"1672","1824 Mi St.","116508","Goa"
"1673","529-4119 Risus. St.","791858","Jharkhand"
"1674","Ap #738-3229 Quam Avenue","493415","Tripura"
"1675","P.O. Box 697, 3522 Ante. Avenue","755677","Chhattisgarh"
"1676","Ap #326-5365 Molestie Rd.","698397","Karnataka"
"1677","Ap #978-9286 Aliquam Av.","266353","Tamil Nadu"
"1678","Ap #454-882 Scelerisque Av.","279986","Uttarakhand"
"1679","602-3833 Est St.","381381","Goa"
"1680","Ap #802-8816 Ut, Av.","262713","Arunachal Pradesh"
"1681","233-7015 Ante Rd.","250538","Chandigarh"
"1682","495-4510 Risus. St.","148381","West Bengal"
"1683","P.O. Box 640, 5104 Malesuada Rd.","784164","Meghalaya"
"1684","Ap #169-9457 Quisque Rd.","736711","Chandigarh"
"1685","Ap #861-4324 Mi. Rd.","285077","Nagaland"
"1686","Ap #748-5933 Id St.","438811","Manipur"
"1687","Ap #868-4875 Sed St.","305358","Andhra Pradesh"
"1688","P.O. Box 307, 7645 Egestas. St.","391441","Meghalaya"
"1689","607-1391 Scelerisque, Rd.","426423","Assam"
"1690","P.O. Box 798, 6067 Nec, Avenue","734032","Maharastra"
"1691","Ap #443-2584 Et, Rd.","731616","Haryana"
"1692","626-4755 Massa Road","655576","Assam"
"1693","691-3115 Commodo Avenue","414721","Nagaland"
"1694","Ap #910-6432 Sapien. St.","657868","Chhattisgarh"
"1695","706-9704 Ipsum Rd.","635340","Lakshadweep"
"1696","890-5418 Sociosqu Avenue","631718","Arunachal Pradesh"
"1697","6426 Magnis Av.","316107","Assam"
"1698","Ap #853-3594 Non, St.","665288","Delhi"
"1699","P.O. Box 162, 2626 Velit Road","347588","Haryana"
"1700","Ap #108-8131 Etiam Rd.","637784","Madhya Pradesh"
"1701","227-4629 Et St.","618214","Daman and Diu"
"1702","P.O. Box 492, 7012 Elit. Rd.","986446","Assam"
"1703","Ap #996-9743 Per St.","945514","Daman and Diu"
"1704","P.O. Box 121, 4583 Purus. Avenue","452816","Jammu and Kashmir"
"1705","7957 Est, St.","439567","Himachal Pradesh"
"1706","Ap #935-6540 Habitant Ave","788581","Tripura"
"1707","P.O. Box 886, 1242 Integer Av.","384341","Madhya Pradesh"
"1708","P.O. Box 419, 1830 Proin Road","678313","Andhra Pradesh"
"1709","P.O. Box 198, 663 Lacinia St.","686463","Pondicherry"
"1710","Ap #392-7541 Ac St.","725503","Uttarakhand"
"1711","584-6379 Egestas. Ave","455622","Mizoram"
"1712","Ap #994-9959 Egestas Av.","588443","Himachal Pradesh"
"1713","P.O. Box 527, 9733 Lacus. Avenue","238862","Gujarat"
"1714","736-9532 Vehicula. Rd.","422832","Uttarakhand"
"1715","347-9028 Nec Road","163358","West Bengal"
"1716","Ap #565-7716 Vestibulum Road","728716","Mizoram"
"1717","341-6486 Nonummy St.","252738","Meghalaya"
"1718","165-7036 Nec Av.","537925","Meghalaya"
"1719","Ap #785-4062 Fusce Rd.","434457","Odisha"
"1720","117-9029 Lectus Rd.","654711","Himachal Pradesh"
"1721","258-364 Vehicula St.","363176","Uttar Pradesh"
"1722","4165 Tellus Rd.","977731","Nagaland"
"1723","170-4764 Mauris. Ave","338611","Karnataka"
"1724","Ap #534-6580 Interdum St.","441339","Manipur"
"1725","Ap #209-1013 Vestibulum Road","513748","Arunachal Pradesh"
"1726","Ap #392-432 Felis, Av.","875509","Jharkhand"
"1727","P.O. Box 633, 1286 Scelerisque Av.","767622","Nagaland"
"1728","368-8924 Vestibulum Road","226802","Mizoram"
"1729","3374 Sem Road","469526","Punjab"
"1730","438-6479 Nam Rd.","454557","Jammu and Kashmir"
"1731","Ap #180-7822 Nec Street","619618","Dadra and Nagar Haveli"
"1732","Ap #480-1228 Odio Street","803458","Arunachal Pradesh"
"1733","2285 Sit St.","502856","Assam"
"1734","Ap #235-1935 Fames St.","571453","Uttar Pradesh"
"1735","2331 Sem, Rd.","326694","Maharastra"
"1736","P.O. Box 114, 4751 Non St.","482464","Delhi"
"1737","8317 Pede Avenue","141814","Goa"
"1738","800-128 Lobortis Rd.","213316","Pondicherry"
"1739","935-5494 Fermentum Ave","684146","Tripura"
"1740","106-881 Donec Avenue","833375","Bihar"
"1741","244-3141 Mi, Rd.","842666","Chandigarh"
"1742","916-3130 In Road","632901","Maharastra"
"1743","Ap #998-9606 Vestibulum Avenue","967370","Pondicherry"
"1744","584-5722 Ac, Road","641599","Kerala"
"1745","2795 Est Rd.","619879","Odisha"
"1746","P.O. Box 879, 6646 Placerat Street","421179","Lakshadweep"
"1747","P.O. Box 406, 2732 In St.","257615","Lakshadweep"
"1748","7309 Est. St.","861413","Goa"
"1749","Ap #734-1125 Urna Av.","576057","Bihar"
"1750","P.O. Box 633, 7273 Volutpat. St.","209373","Maharastra"
"1751","Ap #997-330 Nibh Street","802813","Tripura"
"1752","Ap #202-4560 Ridiculus Road","621265","Daman and Diu"
"1753","1314 Nulla Av.","493916","Karnataka"
"1754","279-3582 Orci. Avenue","389143","Lakshadweep"
"1755","708-3322 Sed Avenue","462463","Karnataka"
"1756","Ap #646-4347 Lorem Rd.","232716","Karnataka"
"1757","9049 Pellentesque St.","369423","Dadra and Nagar Haveli"
"1758","Ap #933-9196 Sit Rd.","328645","Dadra and Nagar Haveli"
"1759","435-687 Primis Ave","741137","Maharastra"
"1760","275-4040 Amet, Street","864328","Chandigarh"
"1761","829-8846 Laoreet Ave","724863","Maharastra"
"1762","4004 Elementum, Rd.","259326","Odisha"
"1763","Ap #275-5735 Est Avenue","888226","West Bengal"
"1764","Ap #814-5871 A, St.","132663","Jharkhand"
"1765","5543 Dictum St.","572961","Gujarat"
"1766","Ap #852-2046 At St.","894140","Karnataka"
"1767","771-8368 Magna. Street","663704","Himachal Pradesh"
"1768","P.O. Box 617, 5635 Eget, Av.","279984","Haryana"
"1769","Ap #831-6171 Nulla Rd.","568014","Chandigarh"
"1770","145-4229 Nulla Street","340363","Bihar"
"1771","Ap #945-2366 Elit. Av.","688294","Tamil Nadu"
"1772","Ap #215-3310 Condimentum Road","845853","Uttarakhand"
"1773","P.O. Box 900, 1791 Egestas Ave","556736","Dadra and Nagar Haveli"
"1774","Ap #301-1915 Tempor Rd.","173737","Chhattisgarh"
"1775","P.O. Box 660, 7296 Risus. St.","564760","Gujarat"
"1776","965-2648 Urna. Rd.","414234","Jharkhand"
"1777","9195 Cras Street","213225","Kerala"
"1778","481-4666 Dolor. Road","746316","Rajasthan"
"1779","Ap #267-6699 Ante, Av.","953655","Kerala"
"1780","Ap #391-9154 Ligula. Av.","817113","Tamil Nadu"
"1781","767-503 Maecenas St.","546288","Nagaland"
"1782","178-6572 Felis Road","748416","Meghalaya"
"1783","Ap #591-5178 Porttitor Rd.","352327","Bihar"
"1784","851-3999 Dolor. Avenue","513533","Jammu and Kashmir"
"1785","Ap #779-8081 Sed Road","127705","Delhi"
"1786","Ap #347-7457 Feugiat. Avenue","681471","West Bengal"
"1787","252-6351 Sociis St.","835180","Daman and Diu"
"1788","4578 Ornare Avenue","677354","Delhi"
"1789","P.O. Box 818, 2965 Sociis Ave","225113","Sikkim"
"1790","325-1848 Nulla Street","327684","Haryana"
"1791","Ap #969-5899 Vehicula Rd.","483569","Maharastra"
"1792","Ap #552-6612 Quisque Rd.","218983","Arunachal Pradesh"
"1793","958 Suscipit, Avenue","359416","Goa"
"1794","P.O. Box 857, 2948 Diam Rd.","458652","Madhya Pradesh"
"1795","110-9176 Aliquet, Road","345366","Andaman and Nicobar Islands"
"1796","P.O. Box 259, 7706 Ante Street","794268","Himachal Pradesh"
"1797","677-7809 Risus. Ave","412322","Madhya Pradesh"
"1798","3290 Ut St.","344494","Uttarakhand"
"1799","967-4510 Erat Rd.","683503","Delhi"
"1800","Ap #658-3046 Nec, St.","723997","Punjab"
"1801","Ap #127-4311 Velit. St.","785364","Gujarat"
"1802","847-3204 Ligula. Av.","652779","Pondicherry"
"1803","Ap #133-4985 Luctus Road","266647","Dadra and Nagar Haveli"
"1804","Ap #976-3439 In Av.","843322","Chhattisgarh"
"1805","Ap #818-7736 Vitae, St.","873778","Rajasthan"
"1806","Ap #459-2357 Quis Rd.","156268","Andhra Pradesh"
"1807","P.O. Box 940, 3680 Euismod Rd.","543676","Chandigarh"
"1808","386-5211 Ultrices Rd.","367103","Tripura"
"1809","2383 Eget, Street","481410","Delhi"
"1810","P.O. Box 642, 3220 Habitant Rd.","276330","Tamil Nadu"
"1811","1095 Vitae, St.","485075","Assam"
"1812","3254 Magna. Road","356375","Himachal Pradesh"
"1813","P.O. Box 767, 7047 Nec Street","659576","West Bengal"
"1814","Ap #999-4094 Aenean Rd.","250217","Daman and Diu"
"1815","473-8173 Adipiscing Ave","662011","Andhra Pradesh"
"1816","3289 Malesuada Rd.","704668","Manipur"
"1817","Ap #386-3799 Aenean St.","931723","Madhya Pradesh"
"1818","240-2091 Faucibus Street","244952","Maharastra"
"1819","992-2884 Leo Road","285515","Madhya Pradesh"
"1820","775-6661 Magna. St.","663487","Chhattisgarh"
"1821","924-1582 Praesent Av.","431823","Arunachal Pradesh"
"1822","P.O. Box 930, 784 Lacinia Rd.","284473","Andaman and Nicobar Islands"
"1823","Ap #965-4543 Adipiscing, Ave","874555","Maharastra"
"1824","Ap #113-2356 Est Avenue","312264","Assam"
"1825","4148 Quis St.","844549","Jammu and Kashmir"
"1826","Ap #272-7500 Accumsan Rd.","111259","Karnataka"
"1827","P.O. Box 966, 5283 Enim Ave","312233","Chandigarh"
"1828","Ap #142-9597 Donec Ave","614355","Mizoram"
"1829","Ap #284-6915 Vestibulum. Rd.","576361","Chhattisgarh"
"1830","P.O. Box 410, 3658 Cubilia St.","550344","Jharkhand"
"1831","6868 Aliquam, Avenue","684545","Mizoram"
"1832","P.O. Box 192, 4459 Litora St.","473673","Lakshadweep"
"1833","113-806 Vel St.","422731","Goa"
"1834","257-2735 Egestas. St.","534891","Karnataka"
"1835","P.O. Box 300, 8173 Non Rd.","251557","Tamil Nadu"
"1836","Ap #284-3797 Pharetra Street","769664","Mizoram"
"1837","P.O. Box 263, 1872 Phasellus Street","522115","Sikkim"
"1838","116-3238 Dapibus Avenue","474997","Odisha"
"1839","365-3026 Torquent Road","815987","Rajasthan"
"1840","P.O. Box 812, 6157 Rhoncus Rd.","487066","Jammu and Kashmir"
"1841","878-6779 Dictum. St.","735709","Daman and Diu"
"1842","2117 Neque. Street","215321","Uttarakhand"
"1843","778-8576 Commodo Road","434270","Meghalaya"
"1844","P.O. Box 564, 8484 Turpis. St.","461678","Tamil Nadu"
"1845","950-7474 Phasellus Road","167522","Andhra Pradesh"
"1846","690-7693 Quam St.","276772","Odisha"
"1847","Ap #801-5334 Nec, Street","821167","Odisha"
"1848","447-5668 Sit St.","323425","Odisha"
"1849","577-4098 Sapien. Av.","221277","Jammu and Kashmir"
"1850","Ap #204-9160 Ligula. St.","633712","Meghalaya"
"1851","461-1061 Vitae, St.","466675","Bihar"
"1852","600-6472 Integer St.","982886","Punjab"
"1853","P.O. Box 762, 3198 Euismod Rd.","647388","Jammu and Kashmir"
"1854","4504 Libero. Rd.","882170","Kerala"
"1855","377-8517 Urna. Rd.","212655","Lakshadweep"
"1856","959-4462 Tortor. Av.","614148","Manipur"
"1857","Ap #383-467 Quis Avenue","903928","Punjab"
"1858","Ap #880-5885 Quisque Street","246834","Delhi"
"1859","675-1683 Eget Ave","221505","Haryana"
"1860","922-1156 Luctus St.","165743","Manipur"
"1861","Ap #827-9032 Dui St.","684344","Sikkim"
"1862","P.O. Box 343, 4900 Mauris Road","918154","Assam"
"1863","Ap #321-7113 Sed St.","216055","Kerala"
"1864","862-7413 Tincidunt Rd.","875125","Tripura"
"1865","Ap #513-2695 Nibh. Rd.","836868","Assam"
"1866","P.O. Box 361, 7787 Adipiscing St.","272595","Pondicherry"
"1867","122-3166 Penatibus Road","672218","Haryana"
"1868","538-372 Scelerisque, Road","786246","Manipur"
"1869","315-1417 Ligula Street","516042","Rajasthan"
"1870","362 Justo Rd.","504884","Jharkhand"
"1871","3919 Dignissim St.","633394","Dadra and Nagar Haveli"
"1872","961-8320 A St.","640935","Uttarakhand"
"1873","468-6628 Mauris Rd.","288508","Assam"
"1874","749-2452 Suspendisse St.","582181","Tamil Nadu"
"1875","Ap #822-4938 Donec Avenue","891566","Arunachal Pradesh"
"1876","124-4554 Nunc. Street","772568","Jharkhand"
"1877","Ap #548-4091 Quisque Av.","636444","Andhra Pradesh"
"1878","268-9062 Eleifend, Avenue","572294","Andaman and Nicobar Islands"
"1879","299-4789 Ac Av.","666724","Odisha"
"1880","P.O. Box 553, 2740 Sed Rd.","294893","West Bengal"
"1881","Ap #481-1325 Vulputate, St.","764187","Uttarakhand"
"1882","2327 Sed Av.","212826","Punjab"
"1883","Ap #580-3884 Pede St.","695312","Uttarakhand"
"1884","542-9849 Ipsum Ave","525133","Goa"
"1885","Ap #764-2712 Vitae St.","335751","Nagaland"
"1886","Ap #384-8305 Convallis Road","942735","Odisha"
"1887","5567 Hendrerit Ave","424641","Tripura"
"1888","P.O. Box 376, 4145 Quis Avenue","847784","Arunachal Pradesh"
"1889","2286 Metus. St.","364046","Karnataka"
"1890","P.O. Box 190, 2765 Fermentum Rd.","662493","Delhi"
"1891","P.O. Box 136, 369 Neque. St.","214162","Manipur"
"1892","8209 Etiam Av.","131563","Andhra Pradesh"
"1893","Ap #550-7235 Eu, Road","548709","Haryana"
"1894","925-8145 Facilisis Avenue","932845","Andhra Pradesh"
"1895","4248 Nullam St.","656878","Maharastra"
"1896","916-5701 Vel, Ave","751232","Kerala"
"1897","P.O. Box 183, 3029 Est Rd.","184668","Arunachal Pradesh"
"1898","628-5402 Lobortis Av.","103293","Tamil Nadu"
"1899","809-9885 Eu Road","154645","Sikkim"
"1900","Ap #642-9714 Quisque St.","577011","Assam"
"1901","566-6290 Pretium Avenue","267853","Pondicherry"
"1902","289-4880 Aliquam Rd.","673966","Sikkim"
"1903","5536 Vel, Street","324341","Pondicherry"
"1904","Ap #120-5708 Ac Av.","276445","Goa"
"1905","P.O. Box 247, 2207 Dolor. Av.","124832","Pondicherry"
"1906","970-2991 Eu, St.","210876","Bihar"
"1907","P.O. Box 780, 6098 Conubia St.","736055","Sikkim"
"1908","197 Turpis St.","515866","Andaman and Nicobar Islands"
"1909","253-4449 Commodo Road","548567","Chhattisgarh"
"1910","4783 Arcu. Av.","784614","Delhi"
"1911","Ap #370-5035 Orci Avenue","297184","Madhya Pradesh"
"1912","5872 Adipiscing St.","537409","Haryana"
"1913","P.O. Box 335, 4858 Velit. Rd.","795117","Delhi"
"1914","3449 Magna Street","607938","Chandigarh"
"1915","173-9058 Vulputate St.","739353","Kerala"
"1916","288-1377 Aliquam Avenue","115777","Delhi"
"1917","Ap #958-151 Tellus Av.","857414","Delhi"
"1918","476-5356 Euismod Street","468553","Kerala"
"1919","Ap #997-7625 Morbi Rd.","296947","Manipur"
"1920","417-6982 Tellus. Road","305215","Kerala"
"1921","793-4733 Ut Av.","793672","Punjab"
"1922","430 Elementum St.","816836","Chhattisgarh"
"1923","158-4326 Ac St.","213418","Maharastra"
"1924","Ap #890-8854 Velit. Road","405397","Sikkim"
"1925","8574 Aliquam Rd.","164383","Bihar"
"1926","2977 Fringilla St.","505542","Gujarat"
"1927","8349 Leo, Ave","353463","Nagaland"
"1928","3190 Hymenaeos. Rd.","827206","Goa"
"1929","Ap #360-5124 Odio. Avenue","162958","Uttar Pradesh"
"1930","P.O. Box 151, 3297 Egestas Street","486253","Uttarakhand"
"1931","981-5485 Iaculis Road","382764","Meghalaya"
"1932","Ap #387-6344 Imperdiet Street","385943","Kerala"
"1933","Ap #181-1375 Sed Rd.","157278","Kerala"
"1934","Ap #214-3524 Maecenas St.","573552","Uttarakhand"
"1935","9961 Dictum. Ave","301514","Sikkim"
"1936","Ap #790-7005 Blandit St.","244255","Meghalaya"
"1937","P.O. Box 919, 8501 Adipiscing Rd.","287981","Lakshadweep"
"1938","642-2955 Amet Street","608914","Kerala"
"1939","Ap #393-9059 Pede Street","775318","Manipur"
"1940","2286 Nullam Ave","628847","Jammu and Kashmir"
"1941","P.O. Box 129, 681 Aliquam Ave","477454","Bihar"
"1942","Ap #724-3392 Gravida Rd.","445520","Haryana"
"1943","P.O. Box 305, 2593 Dui. Av.","635664","Tamil Nadu"
"1944","7806 Phasellus Rd.","780272","Madhya Pradesh"
"1945","Ap #694-9660 Sed Road","238684","Tripura"
"1946","P.O. Box 808, 2490 Ultrices Rd.","744634","Haryana"
"1947","1918 Lacus. Rd.","528684","Lakshadweep"
"1948","257-6350 Dui. Ave","441555","Gujarat"
"1949","6675 Et Ave","554368","Andaman and Nicobar Islands"
"1950","3051 Ipsum Street","818376","Jharkhand"
"1951","937-9668 Sit St.","435768","Chandigarh"
"1952","3696 Mollis. Rd.","769797","Sikkim"
"1953","806-8011 Ligula. Rd.","262615","Chandigarh"
"1954","5756 Magnis Rd.","482833","West Bengal"
"1955","463-4278 Risus. Rd.","588929","Odisha"
"1956","932-2399 Massa Av.","975226","Himachal Pradesh"
"1957","Ap #876-3415 Facilisis Rd.","723628","West Bengal"
"1958","492-4372 Magna Street","684119","Mizoram"
"1959","P.O. Box 186, 7986 Bibendum. Av.","814726","Odisha"
"1960","Ap #178-5285 Nonummy. Road","936437","Dadra and Nagar Haveli"
"1961","Ap #306-2290 Mauris St.","762306","Sikkim"
"1962","Ap #505-5848 Vestibulum Rd.","767881","Madhya Pradesh"
"1963","176-4501 Donec Avenue","863825","Kerala"
"1964","250-2728 Accumsan Street","748942","Himachal Pradesh"
"1965","P.O. Box 381, 1208 Hendrerit Rd.","445337","Daman and Diu"
"1966","6783 Tincidunt Ave","298183","Andhra Pradesh"
"1967","886-5582 Dapibus Rd.","926389","Chandigarh"
"1968","Ap #953-4498 Elit Road","115580","Sikkim"
"1969","Ap #206-7868 Cras Rd.","711107","Pondicherry"
"1970","P.O. Box 990, 4638 Mauris, Ave","774715","Odisha"
"1971","Ap #680-5425 In Street","853171","Odisha"
"1972","Ap #975-4879 Cum Ave","613728","Jharkhand"
"1973","222-9490 Euismod Rd.","587054","Sikkim"
"1974","Ap #695-8882 Odio. Ave","472154","Tamil Nadu"
"1975","212-3310 Et Avenue","103356","Jammu and Kashmir"
"1976","773-8762 Imperdiet Rd.","391929","Sikkim"
"1977","587-9666 Ligula. Avenue","242683","Sikkim"
"1978","645-1766 Auctor Street","647833","Madhya Pradesh"
"1979","711-9344 Rutrum, Ave","477462","Kerala"
"1980","2020 Metus Av.","568180","Delhi"
"1981","P.O. Box 743, 137 Tellus St.","452521","Madhya Pradesh"
"1982","402-4812 Vitae St.","522366","Tamil Nadu"
"1983","P.O. Box 596, 8373 Consectetuer St.","361743","Uttar Pradesh"
"1984","610-7490 Cras Road","612381","Odisha"
"1985","Ap #441-4946 Tellus. Street","611701","Kerala"
"1986","2016 Ultricies Road","731836","Assam"
"1987","Ap #495-8115 Vitae Rd.","426198","Meghalaya"
"1988","4325 Elit Rd.","245621","Chandigarh"
"1989","927-9923 Nisl. Street","817102","Goa"
"1990","Ap #893-7448 Egestas Street","511345","Chandigarh"
"1991","235-759 Condimentum Ave","545083","Uttar Pradesh"
"1992","580 Massa Rd.","935627","Lakshadweep"
"1993","Ap #399-5538 Tempor, Rd.","385452","Chandigarh"
"1994","839-6282 Eu Street","483444","Nagaland"
"1995","102 Mus. Rd.","732223","Assam"
"1996","1716 At, St.","218025","Nagaland"
"1997","515-7759 Pede, Road","276371","Uttar Pradesh"
"1998","P.O. Box 448, 2708 Adipiscing Avenue","364647","Dadra and Nagar Haveli"
"1999","578-8488 Erat Av.","537472","Odisha"
"2000","Ap #273-2670 Augue St.","921287","Uttar Pradesh"
